City,City URL,Data Center Name,Name,Address,Data Center URL,Latitude,Longitude
Chicago,https://www.datacentermap.com/usa/illinois/chicago/,350 East Cermak Road (ORD10),Digital Realty,"350 East Cermak Road, Chicago, IL, 60616, USA",https://www.datacentermap.com/usa/illinois/chicago/350-east-cermark-road/,41.8536495,-87.6183422
Chicago,https://www.datacentermap.com/usa/illinois/chicago/,600 S. Federal St. (ORD11),Digital Realty,"600 South Federal Street, Chicago, IL, 60605, USA",https://www.datacentermap.com/usa/illinois/chicago/600-780-south-federal/,41.8743024,-87.6299278
Chicago,https://www.datacentermap.com/usa/illinois/chicago/,Centersquare - Chicago ORD4-A,Centersquare,"4513 Western Ave, Lisle, IL, 60532, USA",https://www.datacentermap.com/usa/illinois/chicago/evoque-chi1/,41.802407,-88.0946556
Chicago,https://www.datacentermap.com/usa/illinois/chicago/,2200 Busse Road (CH1),Digital Realty,"2200 Busse Road, Elk Grove Village, IL, 60007, USA",https://www.datacentermap.com/usa/illinois/chicago/2200-busse-road/,41.9942501,-87.961949
Chicago,https://www.datacentermap.com/usa/illinois/chicago/,Centersquare - Chicago ORD1-D,Centersquare,"350 E Cermak Rd, Chicago, IL, 60616, USA",https://www.datacentermap.com/usa/illinois/chicago/centersquare-chicago-ord1-d/,41.853678,-87.61835339999999
Chicago,https://www.datacentermap.com/usa/illinois/chicago/,Centersquare - Chicago ORD1-C,Centersquare,"350 E Cermak Rd, Chicago, IL, 60616, USA",https://www.datacentermap.com/usa/illinois/chicago/centersquare-chicago-ord1-c/,41.853678,-87.61835339999999
Chicago,https://www.datacentermap.com/usa/illinois/chicago/,9355 Grand Ave (ORD13),Digital Realty,"9355 Grand Ave, Franklin Park, IL, 60131, USA",https://www.datacentermap.com/usa/illinois/chicago/digital-realty-chicago-ord13/,41.9276592,-87.8593414
Chicago,https://www.datacentermap.com/usa/illinois/chicago/,Stream DC Chicago I,Stream Data Centers,"2080 Lunt Avenue, Elk Grove Village, IL, 60007, USA",https://www.datacentermap.com/usa/illinois/chicago/chicago-i/,42.00704957550101,-87.95503366658885
Chicago,https://www.datacentermap.com/usa/illinois/chicago/,9333 Grand Avenue (ORD12),Digital Realty,"9333 Grand Avenue, Franklin Park, IL, 60131, USA",https://www.datacentermap.com/usa/illinois/chicago/9377-grand-avenue/,41.9266672,-87.8587419
Chicago,https://www.datacentermap.com/usa/illinois/chicago/,1400 East Devon Avenue (CH3),Digital Realty,"1400 East Devon Avenue, Elk Grove Village, IL, 60007, USA",https://www.datacentermap.com/usa/illinois/chicago/1400-east-devon-avenue/,41.9932812,-87.9651934
Chicago,https://www.datacentermap.com/usa/illinois/chicago/,9377 Grand Ave (ORD14),Digital Realty,"9377 Grand Ave, Franklin Park, IL, 60131, USA",https://www.datacentermap.com/usa/illinois/chicago/digital-realty-chicago-ord14/,41.9286176,-87.8587751
Chicago,https://www.datacentermap.com/usa/illinois/chicago/,Stream DC Chicago II,Stream Data Centers,"1925 Busse Road, Elk Grove Village, IL, 60007, USA",https://www.datacentermap.com/usa/illinois/chicago/chicago-ii/,41.99365419435963,-87.9599428471867
Chicago,https://www.datacentermap.com/usa/illinois/chicago/,505 N. Railroad Avenue (ORD23),Digital Realty,"505 North Railroad Avenue, Northlake, IL, 60164, USA",https://www.datacentermap.com/usa/illinois/chicago/505-north-railroad-avenue/,41.9202673,-87.9123343
Chicago,https://www.datacentermap.com/usa/illinois/chicago/,9401 West Grand Avenue (ORD15),Digital Realty,"9401 W Grand Ave, Franklin Park, IL, 60131, USA",https://www.datacentermap.com/usa/illinois/chicago/9401-west-grand-avenue-ord15/,41.92820050669781,-87.86129889720924
Chicago,https://www.datacentermap.com/usa/illinois/chicago/,2425-2553 Edgington Street (ORD22),Digital Realty,"2425-2553 Edgington St, Franklin Park, IL, 60131, USA",https://www.datacentermap.com/usa/illinois/chicago/2425-2553-edgington-street-ord22/,41.9243503,-87.86109019999999
Chicago,https://www.datacentermap.com/usa/illinois/chicago/,2299 Busse Road (CH2),Digital Realty,"2299 Busse Road, Elk Grove Village, IL, 60007, USA",https://www.datacentermap.com/usa/illinois/chicago/2299-busse-road/,41.9942568,-87.9583402
Chicago,https://www.datacentermap.com/usa/illinois/chicago/,Hivelocity - Chicago 1,Hivelocity,"350 East Cermak Road, Chicago, IL, 60616, USA",https://www.datacentermap.com/usa/illinois/chicago/hivelocity-chicago-1/,41.8531135,-87.6183281
Chicago,https://www.datacentermap.com/usa/illinois/chicago/,CyrusOne CHI5 - Lombard,CyrusOne Data Centers,"1850 Springers Drive, Lombard, IL, 60148, USA",https://www.datacentermap.com/usa/illinois/chicago/cyrusone-chicago/,41.8493407,-88.0287834
Chicago,https://www.datacentermap.com/usa/illinois/chicago/,Summit Elk Grove Village,Summit (formerly Deft),"2200 Busse Rd, Elk Grove Village, IL, 60007, USA",https://www.datacentermap.com/usa/illinois/chicago/elk-grove-village/,41.9942245,-87.962234
Chicago,https://www.datacentermap.com/usa/illinois/chicago/,NTT Chicago CH1,NTT Global Data Centers,"255 Pierce Road, Itasca, IL, 60143, USA",https://www.datacentermap.com/usa/illinois/chicago/ntt-ch1/,41.9876101,-88.01108470000001
Chicago,https://www.datacentermap.com/usa/illinois/chicago/,CyrusOne CHI2 - Aurora,CyrusOne Data Centers,"2805 Diehl Rd., Aurora, IL, 60502, USA",https://www.datacentermap.com/usa/illinois/chicago/cyrusone-chi2/,41.796912,-88.245166
Chicago,https://www.datacentermap.com/usa/illinois/chicago/,Prime Chicago Data Center Campus,Prime Data Centers,"1701 Midway Ct, Elk Grove Village, IL, 60007, USA",https://www.datacentermap.com/usa/illinois/chicago/prime-chicago/,42.0248132,-87.9622719
Chicago,https://www.datacentermap.com/usa/illinois/chicago/,T5 Data Centers - T5@Chicago,T5 Data Centers,"200 Innovation Dr, Elk Grove Village, IL, 60007, USA",https://www.datacentermap.com/usa/illinois/chicago/t5-data-centers-t5chicago/,42.0231895,-87.9752031
Chicago,https://www.datacentermap.com/usa/illinois/chicago/,Prime Chicago - Building 3,Prime Data Centers,"1701 Midway Court, Elk Grove Village, IL, 60007, USA",https://www.datacentermap.com/usa/illinois/chicago/prime-chicago-b3/,42.0230727,-87.9615671
Chicago,https://www.datacentermap.com/usa/illinois/chicago/,Prime Chicago - Building 1,Prime Data Centers,"1500 E Higgins Rd, Elk Grove Village, IL 60007, USA, Elk Grove Village, IL, 60007, USA",https://www.datacentermap.com/usa/illinois/chicago/prime-chicago-b1/,42.0246767,-87.9629717
Chicago,https://www.datacentermap.com/usa/illinois/chicago/,Prime Chicago - Building 2,Prime Data Centers,"1600 Oakton St, Elk Grove Village, IL, 60007, USA",https://www.datacentermap.com/usa/illinois/chicago/prime-chicago-b2/,42.0238209,-87.9618963
Chicago,https://www.datacentermap.com/usa/illinois/chicago/,Colocation America CHIDC1,Colocation America,"350 E. Cermak Rd, Chicago, IL, 60616, USA",https://www.datacentermap.com/usa/illinois/chicago/colocation-america-350-e/,41.8541674,-87.618531
Chicago,https://www.datacentermap.com/usa/illinois/chicago/,Summit Chicago,Summit (formerly Deft),"350 East Cermak Road, Chicago, IL, 60616, USA",https://www.datacentermap.com/usa/illinois/chicago/server-central-chicago/,41.853036,-87.61886
Chicago,https://www.datacentermap.com/usa/illinois/chicago/,Netrality - 717 S Wells,Netrality,"717 S. Wells, Chicago, IL, 60607, USA",https://www.datacentermap.com/usa/illinois/chicago/717-s-wells-st/,41.872911,-87.63327
Chicago,https://www.datacentermap.com/usa/illinois/chicago/,TierPoint Chicago - Polk,TierPoint,"601 W. Polk St., Chicago, IL, 60607, USA",https://www.datacentermap.com/usa/illinois/chicago/tierpoint-chicago/,41.8716165,-87.6428248
Chicago,https://www.datacentermap.com/usa/illinois/chicago/,Element Critical Chicago One,Element Critical,"711 N. Edgewood Ave., Wood Dale, IL, 60191, USA",https://www.datacentermap.com/usa/illinois/chicago/sungard-711-n-edgewood/,41.9757369,-87.9654062
Chicago,https://www.datacentermap.com/usa/illinois/chicago/,Iron Mountain Data Centers CHI-1,Iron Mountain Data Centers,"1680 Touhy Avenue , Des Plaines, IL, 60018, USA",https://www.datacentermap.com/usa/illinois/chicago/iron-mountain-chi-1/,42.0110613,-87.8813635
Chicago,https://www.datacentermap.com/usa/illinois/chicago/,Element Critical Chicago Two,Element Critical,"341 Haynes Dr, Wood Dale, IL, 60191, USA",https://www.datacentermap.com/usa/illinois/chicago/sungard-341-haynes-dr/,41.9732601,-87.9666617
Chicago,https://www.datacentermap.com/usa/illinois/chicago/,CoreSite Chicago (CH1),CoreSite,"427 South LaSalle, Chicago, IL, 60605, USA",https://www.datacentermap.com/usa/illinois/chicago/427-lasalle/,41.875952,-87.631416
Chicago,https://www.datacentermap.com/usa/illinois/chicago/,Colocation America CHIDC4,Colocation America,"1808 Swift Dr., Oak Brook, IL, 60523, USA",https://www.datacentermap.com/usa/illinois/chicago/colocation-america-1808-swift-dr/,41.8542602,-87.9208348
Chicago,https://www.datacentermap.com/usa/illinois/chicago/,Equinix CH4,Equinix,"350 E Cermak Rd, Chicago, IL, 60616, USA",https://www.datacentermap.com/usa/illinois/chicago/equinix-ch4/,41.8531135,-87.6183281
Chicago,https://www.datacentermap.com/usa/illinois/chicago/,TierPoint Chicago - West,TierPoint,"9333 West Grand Ave., Franklin Park, IL, 60131, USA",https://www.datacentermap.com/usa/illinois/chicago/tierpoint-chicago-west/,41.9270174,-87.8580281
Chicago,https://www.datacentermap.com/usa/illinois/chicago/,Equinix CH7,Equinix,"111 Plaza Drive, Westmont, IL, 60559, USA",https://www.datacentermap.com/usa/illinois/chicago/equinix-ch7/,41.812525,-87.97275
Chicago,https://www.datacentermap.com/usa/illinois/chicago/,EdgeConneX Chicago - EDCCHI02,EdgeConneX,"2021 Lunt Ave, Elk Grove Village, IL, 60007, USA",https://www.datacentermap.com/usa/illinois/chicago/edgeconnex-chi02/,42.0013642,-87.9526256
Chicago,https://www.datacentermap.com/usa/illinois/chicago/,Centersquare - Chicago ORD1-A,Centersquare,"350 East Cermak, Chicago, IL, 60616, USA",https://www.datacentermap.com/usa/illinois/chicago/cyxtera-ord1a/,41.8535785730705,-87.61843979358673
Chicago,https://www.datacentermap.com/usa/illinois/chicago/,Serverfarm CH1,Serverfarm,"840 S. Canal Street, Chicago, IL, 60607, USA",https://www.datacentermap.com/usa/illinois/chicago/serverfarm-ch1/,41.8709147,-87.64016960000001
Chicago,https://www.datacentermap.com/usa/illinois/chicago/,US Signal Chicago IL01,"US Signal Company, LLC","810 Jorie Blvd, Oak Brook, IL, 60523, USA",https://www.datacentermap.com/usa/illinois/chicago/us-signal-oak-brook/,41.8462974,-87.9396351
Chicago,https://www.datacentermap.com/usa/illinois/chicago/,Skybox Chicago I,Skybox Datacenters,"800 E Devon Ave, Elk Grove Village, IL, 60007, USA",https://www.datacentermap.com/usa/illinois/chicago/skybox-chicago-i/,41.9936604,-87.9735743
Chicago,https://www.datacentermap.com/usa/illinois/chicago/,DataBank ORD4 - Chicago Tri-State,DataBank,"1808 Swift Dr, Oak Brook, IL, 60523, USA",https://www.datacentermap.com/usa/illinois/chicago/latisys-chicago/,41.8534094,-87.9210087
Chicago,https://www.datacentermap.com/usa/illinois/chicago/,CyrusOne CHI1 - Aurora,CyrusOne Data Centers,"2905 Diehl Rd., Lombard, IL, 60148, USA",https://www.datacentermap.com/usa/illinois/chicago/cyrusone-chi1/,41.8492972,-88.0297672
Chicago,https://www.datacentermap.com/usa/illinois/chicago/,DataBank ORD3 - Mount Prospect,DataBank,"800 E Business Center Dr, Mt. Prospect, IL, 60056, USA",https://www.datacentermap.com/usa/illinois/chicago/zcolo-800e-business/,42.0780744,-87.9235706
Chicago,https://www.datacentermap.com/usa/illinois/chicago/,SBA Edge Chicago,SBA Edge,"603 Discovery Drive, West Chicago, IL, 60185, USA",https://www.datacentermap.com/usa/illinois/chicago/new-continuum/,41.8759476,-88.248975
Chicago,https://www.datacentermap.com/usa/illinois/chicago/,Cogent Data Center - Chicago 2,"Cogent Communications, Inc.","216 W. Jackson Blvd, Chicago, IL, 60606, USA",https://www.datacentermap.com/usa/illinois/chicago/cogent-chicago2/,41.878135,-87.634532
Chicago,https://www.datacentermap.com/usa/illinois/chicago/,ColoCrossing CH1,ColoCrossing,"2200 Busse Road, Elk Grove Village, IL, 60007, USA",https://www.datacentermap.com/usa/illinois/chicago/colocrossing-ch1/,41.9942995,-87.9623356
Chicago,https://www.datacentermap.com/usa/illinois/chicago/,Metro Edge IMD1,Metro Edge,"1951 W Hastings St, Chicago, IL, 60608, USA",https://www.datacentermap.com/usa/illinois/chicago/metro-edge-imd1/,41.86379489999999,-87.6748535
Chicago,https://www.datacentermap.com/usa/illinois/chicago/,DataBank ORD2 - Chicago,DataBank,"840 S Canal St, Chicago, IL, 60607, USA",https://www.datacentermap.com/usa/illinois/chicago/databank-ord2/,41.8709351,-87.6401493
Chicago,https://www.datacentermap.com/usa/illinois/chicago/,DataBank ORD1 - Downtown Chicago,DataBank,"600 S Federal St, Chicago, IL, 60605, USA",https://www.datacentermap.com/usa/illinois/chicago/zcolo-600-s-federal/,41.8742002,-87.629937
Chicago,https://www.datacentermap.com/usa/illinois/chicago/,CDW Elk Grove Data Center,CDW Corporation,"1441 Touhy Ave, Elk Grove Village, IL, 60007, USA",https://www.datacentermap.com/usa/illinois/chicago/sirius-data-center/,42.00270313594124,-87.95899332617978
Chicago,https://www.datacentermap.com/usa/illinois/chicago/,Cogent Data Center - Chicago 1,"Cogent Communications, Inc.","427 LaSalle St, Chicago, IL, 60606, USA",https://www.datacentermap.com/usa/illinois/chicago/cogent-chicago-1/,41.8899651,-87.6324538
Aurora,https://www.datacentermap.com/usa/illinois/aurora/,Aurora/Chicago,Databridge Sites,"4267 Meridian Parkway, Aurora, IL, 60504, USA",https://www.datacentermap.com/usa/illinois/aurora/bytegrid-aurora-chi1/,41.7722129,-88.2135576
Aurora,https://www.datacentermap.com/usa/illinois/aurora/,CyrusOne Bliter Road Campus,CyrusOne Data Centers,"2725 Bilter Rd, Aurora, IL, 60502, USA",https://www.datacentermap.com/usa/illinois/aurora/cyrusone-bliter-road-campus/,41.8025885186041,-88.2474165778899
Aurora,https://www.datacentermap.com/usa/illinois/aurora/,Prologis Project Steel - Building 19,Prologis,"W Beecher Rd, Yorkville, IL, 60554, USA",https://www.datacentermap.com/usa/illinois/aurora/prologis-project-steel-building-19/,41.699861,-88.481001
Aurora,https://www.datacentermap.com/usa/illinois/aurora/,Prologis Project Cardinal - Building 12,Prologis,"Route 47 & Galena Rd, Yorkville, IL, 60554, USA",https://www.datacentermap.com/usa/illinois/aurora/prologis-project-cardinal-building-12/,41.713545,-88.449872
Aurora,https://www.datacentermap.com/usa/illinois/aurora/,Prologis Project Cardinal - Building 8,Prologis,"Route 47 & Galena Rd, Yorkville, IL, 60554, USA",https://www.datacentermap.com/usa/illinois/aurora/prologis-project-cardinal-building-8/,41.713466,-88.467585
Aurora,https://www.datacentermap.com/usa/illinois/aurora/,Prologis Project Cardinal - Building 1,Prologis,"Route 47 & Galena Rd, Yorkville, IL, 60554, USA",https://www.datacentermap.com/usa/illinois/aurora/prologis-project-cardinal-building-1/,41.718985,-88.481354
Aurora,https://www.datacentermap.com/usa/illinois/aurora/,Prologis Project Cardinal - Building 3,Prologis,"Route 47 & Galena Rd, Yorkville, IL, 60554, USA",https://www.datacentermap.com/usa/illinois/aurora/prologis-project-cardinal-building-3/,41.715903,-88.481318
Aurora,https://www.datacentermap.com/usa/illinois/aurora/,Prologis Project Steel - Building 23,Prologis,"W Beecher Rd, Yorkville, IL, 60554, USA",https://www.datacentermap.com/usa/illinois/aurora/prologis-project-steel-building-23/,41.699089,-88.47846
Aurora,https://www.datacentermap.com/usa/illinois/aurora/,Prologis Project Steel - Building 3,Prologis,"E Beecher Rd, Yorkville, IL, 60554, USA",https://www.datacentermap.com/usa/illinois/aurora/prologis-project-steel-building-3/,41.697537,-88.470296
Aurora,https://www.datacentermap.com/usa/illinois/aurora/,Prologis Project Steel - Building 9,Prologis,"Galena Rd & W Beecher Rd, Yorkville, IL, 60554, USA",https://www.datacentermap.com/usa/illinois/aurora/prologis-project-steel-building-9/,41.71045,-88.478516
Aurora,https://www.datacentermap.com/usa/illinois/aurora/,Prologis Project Steel - Building 16,Prologis,"Eldamain Rd, Yorkville, IL, 60554, USA",https://www.datacentermap.com/usa/illinois/aurora/prologis-project-steel-building-16/,41.705765,-88.483085
Aurora,https://www.datacentermap.com/usa/illinois/aurora/,CyrusOne Bliter Road - Building 1,CyrusOne Data Centers,"2725 Bilter Rd, Aurora, IL, 60502, USA",https://www.datacentermap.com/usa/illinois/aurora/cyrusone-bliter-road-building-1/,41.80197918585469,-88.24844869188574
Aurora,https://www.datacentermap.com/usa/illinois/aurora/,Prologis Project Cardinal - Building 4,Prologis,"Route 47 & Galena Rd, Yorkville, IL, 60554, USA",https://www.datacentermap.com/usa/illinois/aurora/prologis-project-cardinal-building-4/,41.713654,-88.48079
Aurora,https://www.datacentermap.com/usa/illinois/aurora/,CyrusOne Bliter Road - Building 2,CyrusOne Data Centers,"2725 Bilter Rd, Aurora, IL, 60502, USA",https://www.datacentermap.com/usa/illinois/aurora/cyrusone-bliter-road-building-2/,41.8030574920121,-88.24604729147454
Aurora,https://www.datacentermap.com/usa/illinois/aurora/,Prologis Project Steel - Building 10,Prologis,"Eldamain Rd, Yorkville, IL, 60554, USA",https://www.datacentermap.com/usa/illinois/aurora/prologis-project-steel-building-10/,41.70946,-88.482102
Aurora,https://www.datacentermap.com/usa/illinois/aurora/,Prologis Project Steel - Building 14,Prologis,"Eldamain Rd, Yorkville, IL, 60554, USA",https://www.datacentermap.com/usa/illinois/aurora/prologis-project-steel-building-14/,41.707027,-88.482681
Aurora,https://www.datacentermap.com/usa/illinois/aurora/,Prologis Project Steel - Building 6,Prologis,"Beecher Rd, Yorkville, IL, 60554, USA",https://www.datacentermap.com/usa/illinois/aurora/prologis-project-steel-building-6/,41.693646,-88.470361
Aurora,https://www.datacentermap.com/usa/illinois/aurora/,Prologis Project Steel - Building 8,Prologis,"Galena Rd & Eldamain Rd, Yorkville, IL, 60554, USA",https://www.datacentermap.com/usa/illinois/aurora/prologis-project-steel-building-8/,41.710854,-88.481848
Aurora,https://www.datacentermap.com/usa/illinois/aurora/,Prologis Project Steel - Building 7,Prologis,"Beecher Rd, Yorkville, IL, 60554, USA",https://www.datacentermap.com/usa/illinois/aurora/prologis-project-steel-building-7/,41.69233,-88.470427
Aurora,https://www.datacentermap.com/usa/illinois/aurora/,Prologis Project Steel - Building 5,Prologis,"Beecher Rd, Yorkville, IL, 60554, USA",https://www.datacentermap.com/usa/illinois/aurora/prologis-project-steel-building-5/,41.695013,-88.470295
Aurora,https://www.datacentermap.com/usa/illinois/aurora/,Prologis Project Steel - Building 21,Prologis,"W Beecher Rd, Yorkville, IL, 60554, USA",https://www.datacentermap.com/usa/illinois/aurora/prologis-project-steel-building-21/,41.697268,-88.481164
Aurora,https://www.datacentermap.com/usa/illinois/aurora/,Prologis Project Cardinal - Building 9,Prologis,"Route 47 & Galena Rd, Yorkville, IL, 60554, USA",https://www.datacentermap.com/usa/illinois/aurora/prologis-project-cardinal-building-9/,41.71352,-88.462782
Aurora,https://www.datacentermap.com/usa/illinois/aurora/,Prologis Project Steel - Building 18,Prologis,"W Beecher Rd, Yorkville, IL, 60554, USA",https://www.datacentermap.com/usa/illinois/aurora/prologis-project-steel-building-18/,41.701068,-88.481195
Aurora,https://www.datacentermap.com/usa/illinois/aurora/,Prologis Project Steel - Building 12,Prologis,"Eldamain Rd, Yorkville, IL, 60554, USA",https://www.datacentermap.com/usa/illinois/aurora/prologis-project-steel-building-12/,41.708238,-88.482516
Aurora,https://www.datacentermap.com/usa/illinois/aurora/,Prologis Project Steel - Building 17,Prologis,"W Beecher Rd, Yorkville, IL, 60554, USA",https://www.datacentermap.com/usa/illinois/aurora/prologis-project-steel-building-17/,41.702441,-88.481225
Aurora,https://www.datacentermap.com/usa/illinois/aurora/,Prologis Project Steel - Building 1,Prologis,"E Beecher Rd, Yorkville, IL, 60554, USA",https://www.datacentermap.com/usa/illinois/aurora/prologis-project-steel-building-1/,41.700177,-88.4704
Aurora,https://www.datacentermap.com/usa/illinois/aurora/,Prologis Project Cardinal - Building 2,Prologis,"Route 47 & Galena Rd, Yorkville, IL, 60554, USA",https://www.datacentermap.com/usa/illinois/aurora/prologis-project-cardinal-building-2/,41.718985,-88.477856
Aurora,https://www.datacentermap.com/usa/illinois/aurora/,Prologis Project Steel - Building 24,Prologis,"W Beecher Rd, Yorkville, IL, 60554, USA",https://www.datacentermap.com/usa/illinois/aurora/prologis-project-steel-building-24/,41.696639,-88.478471
Aurora,https://www.datacentermap.com/usa/illinois/aurora/,Prologis Project Steel - Building 15,Prologis,"W Beecher Rd, Yorkville, IL, 60554, USA",https://www.datacentermap.com/usa/illinois/aurora/prologis-project-steel-building-15/,41.706591,-88.479339
Aurora,https://www.datacentermap.com/usa/illinois/aurora/,Prologis Project Steel - Building 20,Prologis,"W Beecher Rd, Yorkville, IL, 60554, USA",https://www.datacentermap.com/usa/illinois/aurora/prologis-project-steel-building-20/,41.698568,-88.48117
Aurora,https://www.datacentermap.com/usa/illinois/aurora/,Prologis Project Steel - Building 11,Prologis,"W Beecher Rd, Yorkville, IL, 60554, USA",https://www.datacentermap.com/usa/illinois/aurora/prologis-project-steel-building-11/,41.709031,-88.478793
Aurora,https://www.datacentermap.com/usa/illinois/aurora/,Prologis Project Cardinal - Building 6,Prologis,"Route 47 & Galena Rd, Yorkville, IL, 60554, USA",https://www.datacentermap.com/usa/illinois/aurora/prologis-project-cardinal-building-6/,41.718735,-88.459492
Aurora,https://www.datacentermap.com/usa/illinois/aurora/,Prologis Project Cardinal - Building 5,Prologis,"Route 47 & Galena Rd, Yorkville, IL, 60554, USA",https://www.datacentermap.com/usa/illinois/aurora/prologis-project-cardinal-building-5/,41.71868,-88.464152
Aurora,https://www.datacentermap.com/usa/illinois/aurora/,Prologis Project Steel - Building 4,Prologis,"Beecher Rd, Yorkville, IL, 60554, USA",https://www.datacentermap.com/usa/illinois/aurora/prologis-project-steel-building-4/,41.696306,-88.470393
Aurora,https://www.datacentermap.com/usa/illinois/aurora/,Prologis Project Cardinal - Building 14,Prologis,"Route 47 & Galena Rd, Yorkville, IL, 60554, USA",https://www.datacentermap.com/usa/illinois/aurora/prologis-project-cardinal-building-14/,41.710296,-88.451012
Aurora,https://www.datacentermap.com/usa/illinois/aurora/,Prologis Project Cardinal - Building 11,Prologis,"Route 47 & Galena Rd, Yorkville, IL, 60554, USA",https://www.datacentermap.com/usa/illinois/aurora/prologis-project-cardinal-building-11/,41.713546,-88.453602
Aurora,https://www.datacentermap.com/usa/illinois/aurora/,Prologis Project Steel - Building 22,Prologis,"W Beecher Rd, Yorkville, IL, 60554, USA",https://www.datacentermap.com/usa/illinois/aurora/prologis-project-steel-building-22/,41.695981,-88.481158
Aurora,https://www.datacentermap.com/usa/illinois/aurora/,Prologis Project Steel - Building 13,Prologis,"W Beecher Rd, Yorkville, IL, 60554, USA",https://www.datacentermap.com/usa/illinois/aurora/prologis-project-steel-building-13/,41.707852,-88.479062
Aurora,https://www.datacentermap.com/usa/illinois/aurora/,Prologis Project Cardinal,Prologis,"Route 47 & Galena Rd, Yorkville, IL, 60554, USA",https://www.datacentermap.com/usa/illinois/aurora/prologis-project-cardinal/,41.71548005352616,-88.46539334719279
Aurora,https://www.datacentermap.com/usa/illinois/aurora/,Prologis Project Steel - Building 2,Prologis,"E Beecher Rd, Yorkville, IL, 60554, USA",https://www.datacentermap.com/usa/illinois/aurora/prologis-project-steel-building-2/,41.698873,-88.470372
Aurora,https://www.datacentermap.com/usa/illinois/aurora/,Prologis Project Cardinal - Building 10,Prologis,"Route 47 & Galena Rd, Yorkville, IL, 60554, USA",https://www.datacentermap.com/usa/illinois/aurora/prologis-project-cardinal-building-10/,41.713493,-88.457977
Aurora,https://www.datacentermap.com/usa/illinois/aurora/,Prologis Project Cardinal - Building 13,Prologis,"Route 47 & Galena Rd, Yorkville, IL, 60554, USA",https://www.datacentermap.com/usa/illinois/aurora/prologis-project-cardinal-building-13/,41.710191,-88.455595
Aurora,https://www.datacentermap.com/usa/illinois/aurora/,Prologis Project Cardinal - Building 7,Prologis,"Route 47 & Galena Rd, Yorkville, IL, 60554, USA",https://www.datacentermap.com/usa/illinois/aurora/prologis-project-cardinal-building-7/,41.71879,-88.454721
Aurora,https://www.datacentermap.com/usa/illinois/aurora/,CyrusOne Yorkville Campus,CyrusOne Data Centers,"Faxon Rd / Eldamain Rd / Beecher Rd, Yorkville, IL, 60545, USA",https://www.datacentermap.com/usa/illinois/aurora/cyrusone-yorkville-campus/,41.67885325578799,-88.48045680608419
Aurora,https://www.datacentermap.com/usa/illinois/aurora/,Prologis Project Steel,Prologis,"Galena Rd & Eldamain Rd, Yorkville, IL, 60554, USA",https://www.datacentermap.com/usa/illinois/aurora/prologis-project-steel/,41.703587,-88.476056
Aurora,https://www.datacentermap.com/usa/illinois/aurora/,CyrusOne Yorkville - Building 3,CyrusOne Data Centers,"Eldamain Rd, Yorkville, IL, 60545, USA",https://www.datacentermap.com/usa/illinois/aurora/cyrusone-yorkville-building-3/,41.678617,-88.484143
Aurora,https://www.datacentermap.com/usa/illinois/aurora/,CyrusOne Yorkville - Building 1,CyrusOne Data Centers,"Faxon Rd, Yorkville, IL, 60545, USA",https://www.datacentermap.com/usa/illinois/aurora/cyrusone-yorkville-building-1/,41.676765,-88.486444
Aurora,https://www.datacentermap.com/usa/illinois/aurora/,CyrusOne Yorkville - Building 8,CyrusOne Data Centers,"Beecher Rd, Yorkville, IL, 60545, USA",https://www.datacentermap.com/usa/illinois/aurora/cyrusone-yorkville-building-8/,41.679798,-88.474716
Aurora,https://www.datacentermap.com/usa/illinois/aurora/,CyrusOne Yorkville - Building 9,CyrusOne Data Centers,"Beecher Rd, Yorkville, IL, 60545, USA",https://www.datacentermap.com/usa/illinois/aurora/cyrusone-yorkville-building-9/,41.678429,-88.474758
Aurora,https://www.datacentermap.com/usa/illinois/aurora/,CyrusOne Yorkville - Building 4,CyrusOne Data Centers,"Faxon Rd, Yorkville, IL, 60545, USA",https://www.datacentermap.com/usa/illinois/aurora/cyrusone-yorkville-building-4/,41.676831,-88.481769
Aurora,https://www.datacentermap.com/usa/illinois/aurora/,CyrusOne Yorkville - Building 2,CyrusOne Data Centers,"Faxon Rd, Yorkville, IL, 60545, USA",https://www.datacentermap.com/usa/illinois/aurora/cyrusone-yorkville-building-2/,41.676791,-88.484117
Aurora,https://www.datacentermap.com/usa/illinois/aurora/,CyrusOne Yorkville - Building 7,CyrusOne Data Centers,"Beecher Rd, Yorkville, IL, 60545, USA",https://www.datacentermap.com/usa/illinois/aurora/cyrusone-yorkville-building-7/,41.679565,-88.47713
Aurora,https://www.datacentermap.com/usa/illinois/aurora/,CyrusOne Yorkville - Building 5,CyrusOne Data Centers,"Faxon Rd, Yorkville, IL, 60545, USA",https://www.datacentermap.com/usa/illinois/aurora/cyrusone-yorkville-building-5/,41.676833,-88.479386
Aurora,https://www.datacentermap.com/usa/illinois/aurora/,CyrusOne Yorkville - Building 6,CyrusOne Data Centers,"Beecher Rd, Yorkville, IL, 60545, USA",https://www.datacentermap.com/usa/illinois/aurora/cyrusone-yorkville-building-6/,41.677734,-88.477088
Bloomington,https://www.datacentermap.com/usa/illinois/bloomington/,STL Data Center,STL,"501 S. Towanda Barnes Rd., Bloomington, IL, 61705, USA",https://www.datacentermap.com/usa/illinois/bloomington/c9d-data-center-services/,40.4729587,-88.9021915
Bloomington,https://www.datacentermap.com/usa/illinois/bloomington/,Pearl Technology Bloomington Data Center,Pearl Technology,"303 E Washington Street, Bloomington, IL, 61571, USA",https://www.datacentermap.com/usa/illinois/bloomington/a5-bloomington/,40.4796501,-88.9909055
Champaign,https://www.datacentermap.com/usa/illinois/champaign/,Consolidated Mattoon,Consolidated Communications,"1501 Charleston Ave, Mattoon, IL, 61938, USA",https://www.datacentermap.com/usa/illinois/champaign/consolidated-mattoon/,39.481175,-88.37280299999999
Champaign,https://www.datacentermap.com/usa/illinois/champaign/,ColocationPLUS Champaign,ColocationPLUS,"401 S Chestnut, Champaign, IL, 61820, USA",https://www.datacentermap.com/usa/illinois/champaign/colocationplus-champaign/,40.1124273,-88.2424913
Peoria,https://www.datacentermap.com/usa/illinois/peoria/,Pearl Technology Peoria Data Center,Pearl Technology,"606 NE Jefferson Street, Peoria, IL, 61603, USA",https://www.datacentermap.com/usa/illinois/peoria/a5-peoria/,40.696644,-89.583765
Rockford,https://www.datacentermap.com/usa/illinois/rockford/,DataPoint Data Center,"DataPoint, Inc.","4901 Colt Road, Rockford, IL, 61109, USA",https://www.datacentermap.com/usa/illinois/rockford/datapoint/,42.2255003,-89.0209314
Rantoul,https://www.datacentermap.com/usa/illinois/rantoul/,ColocationPLUS Rantoul 1,ColocationPLUS,"101 W International Ave, Rantoul, IL, 61866, USA",https://www.datacentermap.com/usa/illinois/rantoul/colocationplus-rantoul/,40.3018532,-88.1594036
Chicago,https://www.datacentermap.com/usa/illinois/chicago/,Aligned ORD-01,Aligned Data Centers,"505 Northwest Avenue, Northlake, IL, 60164, USA",https://www.datacentermap.com/usa/illinois/chicago/aligned-ord-01/,41.91339186039755,-87.91755088123612
Chicago,https://www.datacentermap.com/usa/illinois/chicago/,Digital Fortress Chicago,Digital Fortress,"360 E 22nd St., Lombard, IL, 60148, USA",https://www.datacentermap.com/usa/illinois/chicago/digital-fortress-chicago/,41.84582138061523,-88.00611877441406
Chicago,https://www.datacentermap.com/usa/illinois/chicago/,CloudHQ ORD Campus,CloudHQ,"1200 E Algonquin Rd, Des Plaines, IL, 60016, USA",https://www.datacentermap.com/usa/illinois/chicago/cloudhq-ord-campus/,42.0350399,-87.9532615
Chicago,https://www.datacentermap.com/usa/illinois/chicago/,Equinix CH2,Equinix,"350 E Cermak Rd, Chicago, IL, 60616, USA",https://www.datacentermap.com/usa/illinois/chicago/equinix-chicago-2/,41.8531135,-87.6183281
Chicago,https://www.datacentermap.com/usa/illinois/chicago/,Equinix CH1,Equinix,"350 E Cermak Rd, Chicago, IL, 60616, USA",https://www.datacentermap.com/usa/illinois/chicago/equinix-chicago/,41.8531135,-87.6183281
Chicago,https://www.datacentermap.com/usa/illinois/chicago/,QTS Chicago 1 DC1,QTS Data Centers,"2800 S. Ashland Ave, Chicago, IL, 60608, USA",https://www.datacentermap.com/usa/illinois/chicago/qts-chicago/,41.8418945,-87.6679234
Chicago,https://www.datacentermap.com/usa/illinois/chicago/,FirstComm Data Center,First Communications,"601 W Polk St, Chicago, IL, 60607, USA",https://www.datacentermap.com/usa/illinois/chicago/first-com-dc/,41.87159,-87.643055
Chicago,https://www.datacentermap.com/usa/illinois/chicago/,STACK Infrastructure CHI01B,STACK INFRASTRUCTURE,"1301 Touhy Ave, Elk Grove Village, IL, 60007, USA",https://www.datacentermap.com/usa/illinois/chicago/stack-infrastructure-chi01b/,42.0070232,-87.9664585
Chicago,https://www.datacentermap.com/usa/illinois/chicago/,365 Data Centers - Chicago 1,365 Data Centers,"427 S La Salle St, Chicago, IL, 60605, USA",https://www.datacentermap.com/usa/illinois/chicago/365main-chicago/,41.8273191,-87.6297396
Chicago,https://www.datacentermap.com/usa/illinois/chicago/,Centersquare - Chicago ORD2-A,Centersquare,"2425 Busse Road, Elk Grove Village, IL, 60007, USA",https://www.datacentermap.com/usa/illinois/chicago/cyxtera-ord1/,41.99205367086571,-87.95830249786377
Chicago,https://www.datacentermap.com/usa/illinois/chicago/,CoreSite Chicago (CH2),CoreSite,"1432 S Clinton St., Chicago, IL, 60607, USA",https://www.datacentermap.com/usa/illinois/chicago/coresite-chicago-ch2/,41.862554,-87.6409666
Chicago,https://www.datacentermap.com/usa/illinois/chicago/,Equinix CH3,Equinix,"1905 Lunt Avenue, Elk Grove Village, IL, 60007, USA",https://www.datacentermap.com/usa/illinois/chicago/equinix-ch3/,42.0010976,-87.9548634
Chicago,https://www.datacentermap.com/usa/illinois/chicago/,Centersquare - Chicago ORD1-B,Centersquare,"350 East Cermak, Chicago, IL, 60609, USA",https://www.datacentermap.com/usa/illinois/chicago/cyxtera-ord1b/,41.85355060316745,-87.61832177639008
Chicago,https://www.datacentermap.com/usa/illinois/chicago/,STACK Infrastructure CHI01A,STACK INFRASTRUCTURE,"1441 Touhy Ave, Elk Grove Village, IL, 60007, USA",https://www.datacentermap.com/usa/illinois/chicago/stack-infrastructure-chi01a/,42.00678026127915,-87.96528458998615
Chicago,https://www.datacentermap.com/usa/illinois/chicago/,Cogent Data Center - Chicago 3,"Cogent Communications, Inc.","4200 W 40th St, Chicago, IL, 60632, USA",https://www.datacentermap.com/usa/illinois/chicago/cogent-data-center-chicago-3/,41.8199452,-87.7288994
Chicago,https://www.datacentermap.com/usa/illinois/chicago/,Chicago Board of Trade Building,"Apollo Global Management, Inc.","141 West Jackson, Chicago, IL, 60604, USA",https://www.datacentermap.com/usa/illinois/chicago/Chicago Board of Trade Building/,41.8774207,-87.631836
Chicago,https://www.datacentermap.com/usa/illinois/chicago/,Apotech,Apotech,"1331 E Business Center Dr, Mt Prospect, IL, 60056, USA",https://www.datacentermap.com/usa/illinois/chicago/apotech/,42.0784091,-87.9156464
Chicago,https://www.datacentermap.com/usa/illinois/chicago/,Microsoft Northlake,Microsoft,"601-605 Northwest Ave, Northlake, IL, 60164, USA",https://www.datacentermap.com/usa/illinois/chicago/microsoft-northlake/,41.9229989,-87.9182329
Chicago,https://www.datacentermap.com/usa/illinois/chicago/,NetSource Naperville 1,"NetSource Communications, Inc.","2368 Corporate Lane, Naperville, IL, 60563, USA",https://www.datacentermap.com/usa/illinois/chicago/netsource/,41.8115157,-88.1957266
Chicago,https://www.datacentermap.com/usa/illinois/chicago/,NTT Chicago CH2,NTT Global Data Centers,"275 Pierce Rd, Itasca, IL, 60143, USA",https://www.datacentermap.com/usa/illinois/chicago/ntt-chicago-ch2/,41.98895224309584,-88.00718656785558
Chicago,https://www.datacentermap.com/usa/illinois/chicago/,NTT Chicago CH3,NTT Global Data Centers,"255 Pierce Rd, Itasca, IL, 60143, USA",https://www.datacentermap.com/usa/illinois/chicago/ntt-chicago-ch3/,41.98670525835837,-88.00789289414456
Chicago,https://www.datacentermap.com/usa/illinois/chicago/,Ascent CH2,Ascent,"505 N Railroad Ave, Northlake, IL, 60164, USA",https://www.datacentermap.com/usa/illinois/chicago/ascent-ch2/,41.9202673,-87.9123343
Chicago,https://www.datacentermap.com/usa/illinois/chicago/,CoreWeave Hammond,CoreWeave,"301 Digital Xrds Dr, Hammond, IL, 46320, USA",https://www.datacentermap.com/usa/illinois/chicago/coreweave-hammond/,41.705063,-87.51888699999999
Chicago,https://www.datacentermap.com/usa/illinois/chicago/,CyrusOne CHI6 - Wood Dale,CyrusOne Data Centers,"Bryn Mawr Ave & Pine Ave, Wood Dale, IL, 60106, USA",https://www.datacentermap.com/usa/illinois/chicago/cyrusone-chi6-wood-dale/,41.97819203494112,-87.96145930242726
Chicago,https://www.datacentermap.com/usa/illinois/chicago/,Aligned ORD-02,Aligned Data Centers,"505 Northwest Avenue, Northlake, IL, 60164, USA",https://www.datacentermap.com/usa/illinois/chicago/aligned-ord-02/,41.91339186039755,-87.91755088123612
Chicago,https://www.datacentermap.com/usa/illinois/chicago/,Rackspace Chicago,Rackspace Hosting,"2200 Busse Road, Elk Grove Village, IL, 60007, USA",https://www.datacentermap.com/usa/illinois/chicago/rackspace-chicago/,41.9942563,-87.96196549999999
Chicago,https://www.datacentermap.com/usa/illinois/chicago/,Chirisa Chirisa Volo Technology Park YLO-01,Chirisa,"300 South Fish Lake Rd, Volo, IL, 60073, USA",https://www.datacentermap.com/usa/illinois/chicago/chirisa-volo-ylo-01/,42.32433842249824,-88.14779255112882
Chicago,https://www.datacentermap.com/usa/illinois/chicago/,Chirisa Chirisa Volo Technology Park YLO-02,Chirisa,"300 South Fish Lake Rd, Volo, IL, 60073, USA",https://www.datacentermap.com/usa/illinois/chicago/chirisa-volo-ylo-02/,42.32361397507157,-88.14758870324408
Chicago,https://www.datacentermap.com/usa/illinois/chicago/,1808 Swift Drive,CenterPoint Properties,"1808 Swift Drive, Oak Brook, IL, 60523, USA",https://www.datacentermap.com/usa/illinois/chicago/1808-swift-dr/,41.8538476,-87.9210065
Chicago,https://www.datacentermap.com/usa/illinois/chicago/,360TCS Data Center,360 Technology Center Solutions,"360 E. 22nd St., Lombard, IL, 60148, USA",https://www.datacentermap.com/usa/illinois/chicago/360tcs/,41.848231,-88.007836
Chicago,https://www.datacentermap.com/usa/illinois/chicago/,XNet Critical Computing Facility,"XNet Information Systems, Inc.","3080 Ogden Ave, Lisle, IL, 60532, USA",https://www.datacentermap.com/usa/illinois/chicago/xnet-critical-computing-facility/,41.796754,-88.112567
Chicago,https://www.datacentermap.com/usa/illinois/chicago/,Midway Technology Center,1547 Critical Systems Realty,"40 E Garfield Blvd, Chicago, IL, 60615, USA",https://www.datacentermap.com/usa/illinois/chicago/midway-technology-center/,41.79494739616518,-87.62215043558211
Chicago,https://www.datacentermap.com/usa/illinois/chicago/,Microsoft Hoffman Estates - Building 1,Microsoft,"Lakewood Blvd, Hoffman Estates, IL, 60192, USA",https://www.datacentermap.com/usa/illinois/chicago/microsoft-hoffman-estates-building-1/,42.07859441902408,-88.13399600581712
Chicago,https://www.datacentermap.com/usa/illinois/chicago/,CloudHQ ORD1,CloudHQ,"1200 E Algonquin Rd, Des Plaines, IL, 60016, USA",https://www.datacentermap.com/usa/illinois/chicago/cloudhq-ord1/,42.0351414,-87.9553011
Chicago,https://www.datacentermap.com/usa/illinois/chicago/,ColoHouse Chicago Cermak,ColoHouse,"350 E Cermak, Chicago, IL, 60616, USA",https://www.datacentermap.com/usa/illinois/chicago/colohouse-chicago/,41.8531135,-87.6183281
Chicago,https://www.datacentermap.com/usa/illinois/chicago/,Microsoft Hoffman Estates Campus,Microsoft,"Lakewood Blvd, Hoffman Estates, IL, 60192, USA",https://www.datacentermap.com/usa/illinois/chicago/microsoft-hoffman-estates-campus/,42.076963,-88.133888
Chicago,https://www.datacentermap.com/usa/illinois/chicago/,Aligned ORD-03,Aligned Data Centers,"50 NW Point Blvd, Elk Grove Village, IL, 60007, USA",https://www.datacentermap.com/usa/illinois/chicago/aligned-ord-03/,42.0339696,-87.9831081
Chicago,https://www.datacentermap.com/usa/illinois/chicago/,CloudHQ ORD3,CloudHQ,"1200 E Algonquin Rd, Des Plaines, IL, 60016, USA",https://www.datacentermap.com/usa/illinois/chicago/cloudhq-ord3/,42.036316,-87.9522265
Chicago,https://www.datacentermap.com/usa/illinois/chicago/,STACK Infrastructure CHI02,STACK INFRASTRUCTURE,"1840-1812 Howard St, Elk Grove Village, IL, 60007, USA",https://www.datacentermap.com/usa/illinois/chicago/stack-infrastructure-chi02/,42.01630574596246,-87.95743345097993
Chicago,https://www.datacentermap.com/usa/illinois/chicago/,CloudHQ ORD2,CloudHQ,"1200 E Algonquin Rd, Des Plaines, IL, 60016, USA",https://www.datacentermap.com/usa/illinois/chicago/cloudhq-ord2/,42.034299,-87.9520066
Chicago,https://www.datacentermap.com/usa/illinois/chicago/,T5 Data Centers - T5@Chicago lll,T5 Data Centers,"11650 W Grand Ave, Northlake, IL, 60164, USA",https://www.datacentermap.com/usa/illinois/chicago/t5chicago-lll/,41.93409453449053,-87.91579690468329
Chicago,https://www.datacentermap.com/usa/illinois/chicago/,T5 Data Centers - T5@Grayslake Campus,T5 Data Centers,"30907 N Alleghany Rd, Grayslake, IL, 60030, USA",https://www.datacentermap.com/usa/illinois/chicago/t5grayslake-campus/,42.3118706,-88.05183319999999
Chicago,https://www.datacentermap.com/usa/illinois/chicago/,Aligned ORD-04,Aligned Data Centers,"150 NW Point Blvd, Elk Grove Village, IL, 60007, USA",https://www.datacentermap.com/usa/illinois/chicago/aligned-ord-04/,42.0348684,-87.9835118
Chicago,https://www.datacentermap.com/usa/illinois/chicago/,T5 Data Centers - T5@Chicago V,T5 Data Centers,"TBA - To Be Announced, Elk Grove Village, IL, TBA, USA",https://www.datacentermap.com/usa/illinois/chicago/t5-data-centers-t5chicago-v/,42.0039178,-87.9703461
Chicago,https://www.datacentermap.com/usa/illinois/chicago/,Microsoft Elk Grove Campus,Microsoft,"Elk Grove Technology Park, Innovation Dr & Oakton St, Elk Grove Village, IL, 60007, USA",https://www.datacentermap.com/usa/illinois/chicago/microsoft-elk-grove-campus/,42.02389476247589,-87.97152641675528
Chicago,https://www.datacentermap.com/usa/illinois/chicago/,Microsoft Hoffman Estates - Building 2,Microsoft,"Lakewood Blvd, Hoffman Estates, IL, 60192, USA",https://www.datacentermap.com/usa/illinois/chicago/microsoft-hoffman-estates-building-2/,42.07597842705771,-88.13368486377856
Chicago,https://www.datacentermap.com/usa/illinois/chicago/,Chirisa Volo Technology Park,Chirisa,"300 South Fish Lake Rd, Volo, IL, 60073, USA",https://www.datacentermap.com/usa/illinois/chicago/chirisa-volo-technology-park/,42.323887,-88.14774229999999
Chicago,https://www.datacentermap.com/usa/illinois/chicago/,EdgeConneX Chicago - EDCCHI01,EdgeConneX,"1800 Nicholas Blvd, Elk Grove Village, IL, 60007, USA",https://www.datacentermap.com/usa/illinois/chicago/edgeconnex-chi01/,42.0007126,-87.950788
Chicago,https://www.datacentermap.com/usa/illinois/chicago/,ColoHouse Chicago Wells,ColoHouse,"725 S Wells Street, Chicago, IL, 60607, USA",https://www.datacentermap.com/usa/illinois/chicago/colohouse-chicago-wells/,41.87258569999999,-87.6332523
Chicago,https://www.datacentermap.com/usa/illinois/chicago/,Chicago Exchange,Menlo Equities,"601 W. Polk St, Chicago, IL, 60605, USA",https://www.datacentermap.com/usa/illinois/chicago/chicago-exchange/,41.87159,-87.643055
Chicago,https://www.datacentermap.com/usa/illinois/chicago/,Colovore ORD01,Colovore,"TBA - To Be Announced, Aurora, IL, TBA, USA",https://www.datacentermap.com/usa/illinois/chicago/colovore-ord01/,41.7605849,-88.32007150000001
Chicago,https://www.datacentermap.com/usa/illinois/chicago/,FDCservers.net,FDCservers.net LLC,"141 West Jackson Blvd., Chicago, IL, 60604, USA",https://www.datacentermap.com/usa/illinois/chicago/fdcservers/,41.878139,-87.632136
Chicago,https://www.datacentermap.com/usa/illinois/chicago/,LexisNexis Oak Brook,LexisNexis,"1808 Swift Dr, Oak Brook, IL, 60523, USA",https://www.datacentermap.com/usa/illinois/chicago/lexisnexis-oak-brook/,41.8540605,-87.9209272
Chicago,https://www.datacentermap.com/usa/illinois/chicago/,365 Data Centers - Chicago 2,365 Data Centers,"350 East Cermak Road, Chicago, IL, 60623, USA",https://www.datacentermap.com/usa/illinois/chicago/atlantic-metro-communications-ord0/,41.853036,-87.61886
Chicago,https://www.datacentermap.com/usa/illinois/chicago/,Edged Chicago ORD3,Edged Energy,"2725 Bilter Rd, Aurora, IL, 60502, USA",https://www.datacentermap.com/usa/illinois/chicago/edged-ord3/,41.80334254553506,-88.24183389575663
Chicago,https://www.datacentermap.com/usa/illinois/chicago/,8080 S DuSable Lake Shore Drive,Related Digital,"8080 S DuSable Lake Shore Dr, Chicago, IL, 60617, USA",https://www.datacentermap.com/usa/illinois/chicago/8080-s-dusable-lake-shore-drive/,41.7391812804123,-87.53453834812404
Chicago,https://www.datacentermap.com/usa/illinois/chicago/,216 West Jackson Boulevard,"Baum Realty Group, LLC","216 W Jackson Blvd, Chicago, IL, 60606, USA",https://www.datacentermap.com/usa/illinois/chicago/216-west-jackson-boulevard/,41.8784686,-87.6345676
Chicago,https://www.datacentermap.com/usa/illinois/chicago/,2500-2540 South Wabash Ave,Unknown Company,"2500-2540 S Wabash Ave, Chicago, IL, 60616, USA",https://www.datacentermap.com/usa/illinois/chicago/2500-2540-south-wabash-ave/,41.8466261711859,-87.62577126694445
Chicago,https://www.datacentermap.com/usa/illinois/chicago/,Edged Chicago ORD2,Edged Energy,"2835 Bilter Rd, Aurora, IL, 60502, USA",https://www.datacentermap.com/usa/illinois/chicago/edged-ord2/,41.80497280463166,-88.24395821053338
Chicago,https://www.datacentermap.com/usa/illinois/chicago/,Edged Chicago ORD1,Edged Energy,"2815 Bilter Rd, Aurora, IL, 60502, USA",https://www.datacentermap.com/usa/illinois/chicago/edged-ord1/,41.80704338793177,-88.24032598509044
Chicago,https://www.datacentermap.com/usa/illinois/chicago/,Edged Chicago Campus,Edged Energy,"2725-2815 Bilter Rd, Aurora, IL, 60502, USA",https://www.datacentermap.com/usa/illinois/chicago/edged-chicago-campus/,41.8079909,-88.24199709999999
Chicago,https://www.datacentermap.com/usa/illinois/chicago/,Microsoft Hoffman Estates - Building 4,Microsoft,"Lakewood Blvd, Hoffman Estates, IL, 60192, USA",https://www.datacentermap.com/usa/illinois/chicago/microsoft-hoffman-estates-building-4/,42.0759784270513,-88.13803004238875
Chicago,https://www.datacentermap.com/usa/illinois/chicago/,NTT Chicago Campus,NTT Global Data Centers,"255-275 Pierce Rd, Itasca, IL, 60143, USA",https://www.datacentermap.com/usa/illinois/chicago/ntt-chicago-campus/,41.98796226720933,-88.00576214358502
Chicago,https://www.datacentermap.com/usa/illinois/chicago/,Microsoft Elk Grove - Building 2,Microsoft,"Elk Grove Technology Park, Innovation Dr & Oakton St, Elk Grove Village, IL, 60007, USA",https://www.datacentermap.com/usa/illinois/chicago/microsoft-elk-grove-building-2/,42.02414439965229,-87.97167702781779
Chicago,https://www.datacentermap.com/usa/illinois/chicago/,Amazon AWS - New Carlisle,Amazon AWS,"Huckleberry Rd & Gordon Rd, New Carlisle, IL, 46552, USA",https://www.datacentermap.com/usa/illinois/chicago/amazon-aws-new-carlisle/,41.665512,-86.47261
Chicago,https://www.datacentermap.com/usa/illinois/chicago/,Chicago Campus,Aligned Data Centers,"505 Northwest Avenue, Northlake, IL, 60164, USA",https://www.datacentermap.com/usa/illinois/chicago/chicago-campus/,41.91339186039755,-87.91755088123612
Chicago,https://www.datacentermap.com/usa/illinois/chicago/,Microsoft Hoffman Estates - Building 3,Microsoft,"Lakewood Blvd, Hoffman Estates, IL, 60192, USA",https://www.datacentermap.com/usa/illinois/chicago/microsoft-hoffman-estates-building-3/,42.07713313158135,-88.13805150005986
Chicago,https://www.datacentermap.com/usa/illinois/chicago/,Microsoft Elk Grove - Building 1,Microsoft,"Elk Grove Technology Park, Innovation Dr & Oakton St, Elk Grove Village, IL, 60007, USA",https://www.datacentermap.com/usa/illinois/chicago/microsoft-elk-grove-building-1/,42.02311794982313,-87.97210568212355
Chicago,https://www.datacentermap.com/usa/illinois/chicago/,Compass Hoffman Estates,Compass Datacenters,"3333 Beverly Rd, Hoffman Estates, IL, 60179, USA",https://www.datacentermap.com/usa/illinois/chicago/compass-hoffman-estates/,42.075586,-88.2030149
Chicago,https://www.datacentermap.com/usa/illinois/chicago/,Meta DeKalb Campus,Meta,"1550-2050 Metaverse Wy, DeKalb, IL, 60115, USA",https://www.datacentermap.com/usa/illinois/chicago/meta-dekalb-data-center/,41.8891321,-88.7269704
Chicago,https://www.datacentermap.com/usa/illinois/chicago/,WOWaccess Data Center,WOWaccess,"184 Shuman Blvd, Naperville, IL, 60563, USA",https://www.datacentermap.com/usa/illinois/chicago/chicago-hosting1/,41.8028283,-88.1479565
Chicago,https://www.datacentermap.com/usa/illinois/chicago/,Microsoft Elk Grove - Building 3,Microsoft,"Elk Grove Technology Park, Innovation Dr & Oakton St, Elk Grove Village, IL, 60007, USA",https://www.datacentermap.com/usa/illinois/chicago/microsoft-elk-grove-building-3/,42.0250917475572,-87.9719047556306
Chicago,https://www.datacentermap.com/usa/illinois/chicago/,Microsoft Plano (IL),Microsoft,"Eldamain Rd & Corneils Rd, Plano, IL, 60545, USA",https://www.datacentermap.com/usa/illinois/chicago/microsoft-plano-il/,41.6900357,-88.48881039999999
Chicago,https://www.datacentermap.com/usa/illinois/chicago/,Amazon AWS ORD - 63050 Prairie,Amazon AWS,"63050 Prairie Dr, Portage, IL, 46368, USA",https://www.datacentermap.com/usa/illinois/chicago/amazon-aws-ord-63050-prairie/,41.60963289562155,-87.16976204861092
Chicago,https://www.datacentermap.com/usa/illinois/chicago/,Lumen Chicago 3,Lumen,"200 N LaSalle St, Chicago, IL, 60601, USA",https://www.datacentermap.com/usa/illinois/chicago/200-n-lasalle/,41.889183,-87.632519
Chicago,https://www.datacentermap.com/usa/illinois/chicago/,DLS Internet LITH,DLS Internet Services,"950 E. Oak Street, Lake in the Hills, IL, 60156, USA",https://www.datacentermap.com/usa/illinois/chicago/dls-internet-lith/,42.1894409,-88.3085064
Chicago,https://www.datacentermap.com/usa/illinois/chicago/,Axon Datacenter,Axon Datacenters,"7093 Barry St, Rosemont, IL, 60018, USA",https://www.datacentermap.com/usa/illinois/chicago/axon-datacenter/,42.0076195,-87.8914789
Chicago,https://www.datacentermap.com/usa/illinois/chicago/,Lumen South Holland 1,Lumen,"200 E 166th St, South Holland, IL, 60473, USA",https://www.datacentermap.com/usa/illinois/chicago/lumen-south-holland-1/,41.5942664,-87.6112711
Chicago,https://www.datacentermap.com/usa/illinois/chicago/,NTT Chicago CH4,NTT Global Data Centers,"1200 N Arlington Heights Rd, Itasca, IL, 60143, USA",https://www.datacentermap.com/usa/illinois/chicago/ntt-chicago-ch4/,41.988758,-88.0042284
Chicago,https://www.datacentermap.com/usa/illinois/chicago/,Volico Chicago,Volico Data Center,"350 E Cermak Rd, Chicago, IL, 60616, USA",https://www.datacentermap.com/usa/illinois/chicago/volico-chicago/,41.8531135,-87.6183281
Chicago,https://www.datacentermap.com/usa/illinois/chicago/,GigeNET Chicago,Gigenet,"545 E. Algonquin Rd., Arlington Heights, IL, 60005, USA",https://www.datacentermap.com/usa/illinois/chicago/gigenet/,42.041217,-87.975353
Chicago,https://www.datacentermap.com/usa/illinois/chicago/,CBTS Lombard Data Center I,CBTS,"1850 W Springer, Lombard, IL, 60148, USA",https://www.datacentermap.com/usa/illinois/chicago/cbts---lombard/,41.8493989,-88.0296071
Chicago,https://www.datacentermap.com/usa/illinois/chicago/,NetSource Naperville 2,"NetSource Communications, Inc.","1717 Park St., Naperville, IL, 60563, USA",https://www.datacentermap.com/usa/illinois/chicago/pugmarks/,41.7994,-88.148857
Chicago,https://www.datacentermap.com/usa/illinois/chicago/,Hostrunway Lombard,Hostrunway,"1850 Springer Dr, Lombard, IL, 60148, USA",https://www.datacentermap.com/usa/illinois/chicago/hostrunway-lombard/,41.8493211,-88.029617
Chicago,https://www.datacentermap.com/usa/illinois/chicago/,NaviSite Oak Brook,"NaviSite, Inc.","800 Jorie Blvd, Oak Brook, IL, 60523, USA",https://www.datacentermap.com/usa/illinois/chicago/navisite-oak-brook/,41.8455308,-87.9414087
Chicago,https://www.datacentermap.com/usa/illinois/chicago/,427 LaSalle,CoreSite,"427 South LaSalle Street, Chicago, IL, 60605, USA",https://www.datacentermap.com/usa/illinois/chicago/427-south-lasalle-st/,41.8759351,-87.6315144
Chicago,https://www.datacentermap.com/usa/illinois/chicago/,Sinch Data Center,Sinch,"717 S Wells St, Chicago, IL, 60607, USA",https://www.datacentermap.com/usa/illinois/chicago/neutral-tandem/,41.873122,-87.633597
Chicago,https://www.datacentermap.com/usa/illinois/chicago/,Lumen Chicago,Lumen,"111 N Canal St, Chicago, IL, 60606, USA",https://www.datacentermap.com/usa/illinois/chicago/level3-chicago1/,41.883494,-87.639767
Chicago,https://www.datacentermap.com/usa/illinois/chicago/,Lumen 350 E Cermak,Lumen,"350 E Cermark Road, Chicago, IL, 60616, USA",https://www.datacentermap.com/usa/illinois/chicago/qwest-350-e-cermak/,41.853686,-87.618249
Chicago,https://www.datacentermap.com/usa/illinois/chicago/,Synoptek - Chicago Data Center,Synoptek,"350 East Cermak Road, Chicago, IL, 60616, USA",https://www.datacentermap.com/usa/illinois/chicago/earthlink-chicago/,41.853036,-87.61886
Chicago,https://www.datacentermap.com/usa/illinois/chicago/,NaviSite Chicago,"NaviSite, Inc.","725 S Wells, Chicago, IL, 60610, USA",https://www.datacentermap.com/usa/illinois/chicago/navisite-chicago/,41.8727371,-87.633274
Chicago,https://www.datacentermap.com/usa/illinois/chicago/,360 East 22nd Street,360E 22nd LLC,"360 East 22nd Street, Lombard, IL, 60148, USA",https://www.datacentermap.com/usa/illinois/chicago/360-e-22nd/,41.8481853,-88.0077385
Chicago,https://www.datacentermap.com/usa/illinois/chicago/,Lumen Chicago 4,Lumen,"600 West Chicago Ave., Chicago, IL, 60610, USA",https://www.datacentermap.com/usa/illinois/chicago/level3-chicago4/,41.896459,-87.643607
Chicago,https://www.datacentermap.com/usa/illinois/chicago/,Meta DeKalb - Building 1,Meta,"2050 Metaverse Wy, DeKalb, IL, 60115, USA",https://www.datacentermap.com/usa/illinois/chicago/meta-dekalb-building-1/,41.88846907115314,-88.72262473572235
Chicago,https://www.datacentermap.com/usa/illinois/chicago/,Meta DeKalb - Building 6,Meta,"1550 Metaverse Wy, DeKalb, IL, 60115, USA",https://www.datacentermap.com/usa/illinois/chicago/meta-dekalb-building-6/,41.88908065066443,-88.73003951824663
Chicago,https://www.datacentermap.com/usa/illinois/chicago/,Meta DeKalb - Building 3,Meta,"1750 Metaverse Wy, DeKalb, IL, 60115, USA",https://www.datacentermap.com/usa/illinois/chicago/meta-dekalb-building-3/,41.89026874265119,-88.72773334957424
Chicago,https://www.datacentermap.com/usa/illinois/chicago/,Lumen Arlington Heights 1,Lumen,"1305 E. Algonquin Avenue,, Arlington Heights, IL, 60005, USA",https://www.datacentermap.com/usa/illinois/chicago/level3-arlington-heights1/,42.031161,-87.953588
Chicago,https://www.datacentermap.com/usa/illinois/chicago/,Meta DeKalb - Building 4,Meta,"1750 Metaverse Wy, DeKalb, IL, 60115, USA",https://www.datacentermap.com/usa/illinois/chicago/meta-dekalb-building-4/,41.89022743583735,-88.72611329532937
Chicago,https://www.datacentermap.com/usa/illinois/chicago/,Meta DeKalb - Building 5,Meta,"1550 Metaverse Wy, DeKalb, IL, 60115, USA",https://www.datacentermap.com/usa/illinois/chicago/meta-dekalb-building-5/,41.88909799734327,-88.73160592831091
Chicago,https://www.datacentermap.com/usa/illinois/chicago/,Meta DeKalb - Building 2,Meta,"2050 Metaverse Wy, DeKalb, IL, 60115, USA",https://www.datacentermap.com/usa/illinois/chicago/meta-dekalb-building-2/,41.88845971134259,-88.72099395264142
Chicago,https://www.datacentermap.com/usa/illinois/chicago/,Lumen Chicago 5,Lumen,"600 S. Federal, Chicago, IL, 60605, USA",https://www.datacentermap.com/usa/illinois/chicago/level3-chicago5/,41.8742558,-87.6300319
Chicago,https://www.datacentermap.com/usa/illinois/chicago/,NTT Chicago CH5,NTT Global Data Centers,"1250 N Arlington Heights Rd, Itasca, IL, 60143, USA",https://www.datacentermap.com/usa/illinois/chicago/ntt-chicago-ch5/,41.9895789,-88.0043142
Chicago,https://www.datacentermap.com/usa/illinois/chicago/,Lumen Broadview 1,Lumen,"2101 Roberts Drive, Broadview, IL, 60155, USA",https://www.datacentermap.com/usa/illinois/chicago/level3-broadview1/,41.854495,-87.858412
Chicago,https://www.datacentermap.com/usa/illinois/chicago/,DLS Internet 216 Jackson,DLS Internet Services,"216 West Jackson Blvd, Chicago, IL, 60606, USA",https://www.datacentermap.com/usa/illinois/chicago/dls-internet/,41.8784511,-87.634475
Chicago,https://www.datacentermap.com/usa/illinois/chicago/,Hostway Boeing Data Center,"Hostway Services, Inc","100 North Riverside Plaza, Chicago, IL, 60606, USA",https://www.datacentermap.com/usa/illinois/chicago/hostway-boeing-data-center/,41.8842758,-87.6385767
Chicago,https://www.datacentermap.com/usa/illinois/chicago/,CBTS Lombard Data Center II,CBTS,"564 Winter Lane, Lombard, IL, 60148, USA",https://www.datacentermap.com/usa/illinois/chicago/cbts-lombard-data-center/,41.8800296,-88.0078435
Chicago,https://www.datacentermap.com/usa/illinois/chicago/,Lumen Chicago 2,Lumen,"900 N. Kingsbury Street, Chicago, IL, 60610, USA",https://www.datacentermap.com/usa/illinois/chicago/level3-chicago2/,41.8989513,-87.6446419
Chicago,https://www.datacentermap.com/usa/illinois/chicago/,Unmapped Data Centers,,", Chicago, IL, , USA",https://www.datacentermap.comNone,42.020733,-87.8302
