City,City URL,Data Center Name,Name,Address,Data Center URL,Latitude,Longitude
Columbus,https://www.datacentermap.com/usa/ohio/columbus/,Cologix COL3-S,Cologix,"585 Scherers Court, Columbus, OH, 43085, USA",https://www.datacentermap.com/usa/ohio/columbus/cclogix-col3/,40.1158366,-83.002122
Columbus,https://www.datacentermap.com/usa/ohio/columbus/,Cologix COL1,Cologix,"535 Scherers Ct, Columbus, OH, 43085, USA",https://www.datacentermap.com/usa/ohio/columbus/cologix-col1/,40.115757,-83.002414
Columbus,https://www.datacentermap.com/usa/ohio/columbus/,Cologix COL2,Cologix,"555 Scherers Court, Columbus, OH, 43085, USA",https://www.datacentermap.com/usa/ohio/columbus/scg-services/,40.116016,-83.002596
Columbus,https://www.datacentermap.com/usa/ohio/columbus/,Cologix COL4-S,Cologix,"7500 Alta View Blvd, Columbus, OH, 43085, USA",https://www.datacentermap.com/usa/ohio/columbus/cologix-col4-s/,40.1184384,-82.9999965
Columbus,https://www.datacentermap.com/usa/ohio/columbus/,Cologix COL5,Cologix,"6787 Green Meadows Drive, Lewis Center, OH, 43035, USA",https://www.datacentermap.com/usa/ohio/columbus/cologix-col5/,40.1907716,-83.0112662
Columbus,https://www.datacentermap.com/usa/ohio/columbus/,Cologix Johnstown Campus,Cologix,"12017 Duncan Plains Rd, Johnstown, OH, 43031, USA",https://www.datacentermap.com/usa/ohio/columbus/cologix-johnstown-campus/,40.13656312366777,-82.71894406966204
Columbus,https://www.datacentermap.com/usa/ohio/columbus/,WeConnect Community Data Center,City of Westerville - WeConnect,"35 Collegeview Road, Westerville, OH, 43081, USA",https://www.datacentermap.com/usa/ohio/columbus/weconnect-community-data-center/,40.1238326,-82.945611
Columbus,https://www.datacentermap.com/usa/ohio/columbus/,"DartPoints Dublin, OH - CMH01",DartPoints,"565 Metro Place South, Dublin, OH, 43017, USA",https://www.datacentermap.com/usa/ohio/columbus/metro-data-center/,40.09316,-83.13382
Columbus,https://www.datacentermap.com/usa/ohio/columbus/,Edged Columbus,Edged Energy,"6525 New Albany Rd E, New Albany, OH, 43054, USA",https://www.datacentermap.com/usa/ohio/columbus/edged-columbus/,40.106074,-82.815775
Columbus,https://www.datacentermap.com/usa/ohio/columbus/,Racksquared Spring Street Datacenter,RackSquared,"325 E Spring Street, Columbus, OH, 43215, USA",https://www.datacentermap.com/usa/ohio/columbus/racksquared/,39.966919,-82.9926132
Columbus,https://www.datacentermap.com/usa/ohio/columbus/,Compugen New Albany Data Center,Compugen Inc.,"7000 Souder Road, New Albany, OH, 43054, USA",https://www.datacentermap.com/usa/ohio/columbus/new-albany-dc/,40.1064892,-82.8052757
Columbus,https://www.datacentermap.com/usa/ohio/columbus/,Centersquare - Columbus CMH1-A,Centersquare,"8180 Green Meadows Dr N, North Lewis Center, OH, 43035, USA",https://www.datacentermap.com/usa/ohio/columbus/cyxtera-cmh1/,40.168866,-83.010575
Columbus,https://www.datacentermap.com/usa/ohio/columbus/,WOW! Data Center,WOW Business/E Solutions,"226 North 5th Street, Columbus, OH, 43215, USA",https://www.datacentermap.com/usa/ohio/columbus/wow/,39.967655,-82.9954039
Columbus,https://www.datacentermap.com/usa/ohio/columbus/,5CDC Columbus - CMH01,5C Data Centers (5CDC),"601 Benjamin Dr, Springfield, OH, 45502, USA",https://www.datacentermap.com/usa/ohio/columbus/5cdc-columbus-cmh01/,39.912807,-83.72371799999999
Columbus,https://www.datacentermap.com/usa/ohio/columbus/,CeraNet DC1,"CeraNet, Inc.","826 Morrison Road, Columbus, OH, 43230, USA",https://www.datacentermap.com/usa/ohio/columbus/ceranet-dc1/,39.994518,-82.854439
Columbus,https://www.datacentermap.com/usa/ohio/columbus/,Cogent Data Center - Columbus,"Cogent Communications, Inc.","240 N 5th Street, Columbus, OH, 43215, USA",https://www.datacentermap.com/usa/ohio/columbus/cogent-columbus/,39.968773,-82.996036
Columbus,https://www.datacentermap.com/usa/ohio/columbus/,BrescoBroadband Columbus 1,"Bresco Broadband, LLC","180 E Broad St, Columbus, OH, 43215, USA",https://www.datacentermap.com/usa/ohio/columbus/brescobroadband-columbus-1/,39.96322395338774,-82.99585341086328
Columbus,https://www.datacentermap.com/usa/ohio/columbus/,BrescoBroadband Columbus 2,"Bresco Broadband, LLC","423 E Town Street, Columbus, OH, 43215, USA",https://www.datacentermap.com/usa/ohio/columbus/brescobroadband-columbus-2/,39.9597943,-82.9886111
Columbus,https://www.datacentermap.com/usa/ohio/columbus/,Expedient Dublin,Expedient Data Centers,"5700 Innovation Drive, Dublin, OH, 43016, USA",https://www.datacentermap.com/usa/ohio/columbus/expedient-dublin/,40.0919131,-83.143588
Columbus,https://www.datacentermap.com/usa/ohio/columbus/,ICS Corporate Center,ICS,"175 South Third Street, Columbus, OH, 43215, USA",https://www.datacentermap.com/usa/ohio/columbus/col2/,39.95874,-82.9976106
Columbus,https://www.datacentermap.com/usa/ohio/columbus/,CeraNet DC2,"CeraNet, Inc.","Not publicly available, Dublin, OH, 43017, USA",https://www.datacentermap.com/usa/ohio/columbus/ceranet-dc2/,40.0988366,-83.1143412
Columbus,https://www.datacentermap.com/usa/ohio/columbus/,CeraNet DC3,"CeraNet, Inc.","4151 Executive Pkwy, Westerville, OH, 43081, USA",https://www.datacentermap.com/usa/ohio/columbus/ceranet-dc3/,40.0829991,-82.9002489
Columbus,https://www.datacentermap.com/usa/ohio/columbus/,QTS New Albany 2 DC2,QTS Data Centers,"675 Beech Road SW, New Albany, OH, 43054, USA",https://www.datacentermap.com/usa/ohio/columbus/qts-new-albany1/,40.0728798,-82.7539985
Columbus,https://www.datacentermap.com/usa/ohio/columbus/,Expedient Upper Arlington,Expedient Data Centers,"5000 Arllington Centre Blvd, Building One, Columbus, OH, 43220, USA",https://www.datacentermap.com/usa/ohio/columbus/expedient-chicago/,41.8781049,-87.6344699
Columbus,https://www.datacentermap.com/usa/ohio/columbus/,CENTRA Columbus (CMH01),CENTRA,"180 E Broad St, Columbus, OH, 43215, USA",https://www.datacentermap.com/usa/ohio/columbus/centra-columbus-cmh01/,39.9631827,-82.99599429999999
Columbus,https://www.datacentermap.com/usa/ohio/columbus/,226 North Fifth Street,Hackman Capital Partners,"226 North Fifth Street, Columbus, OH, 43215, USA",https://www.datacentermap.com/usa/ohio/columbus/226-north-fifth-street/,39.967663,-82.9954016
Columbus,https://www.datacentermap.com/usa/ohio/columbus/,eNET CMH-1,"eNET, Inc","3000 E. Dublin-Granville Rd, Columbus, OH, 43231, USA",https://www.datacentermap.com/usa/ohio/columbus/cmh-1/,40.0830527,-82.9384729
Columbus,https://www.datacentermap.com/usa/ohio/columbus/,Racksquared Value Way Datacenter,RackSquared,"2560 Value Way Drive, Columbus, OH, 43224, USA",https://www.datacentermap.com/usa/ohio/columbus/racsksquared-value-way/,40.0454379,-82.9523431
Columbus,https://www.datacentermap.com/usa/ohio/columbus/,Vantage OH1 - New Albany,Vantage Data Centers,"3325 Horizon Court, Johnstown, OH, 43031, USA",https://www.datacentermap.com/usa/ohio/columbus/vantage-new-albany/,40.10484880369839,-82.74509456329503
Columbus,https://www.datacentermap.com/usa/ohio/columbus/,Vantage OH2 - Millersport,Vantage Data Centers,"State Route 204 and State Route 37, Millersport, OH, 43046, USA",https://www.datacentermap.com/usa/ohio/columbus/vantage-oh2-millersport/,39.90927393155776,-82.55058617184937
Columbus,https://www.datacentermap.com/usa/ohio/columbus/,Cogent Data Center - Columbus 2,"Cogent Communications, Inc.","161 East Goodale St, Columbus, OH, 43215, USA",https://www.datacentermap.com/usa/ohio/columbus/cogent-data-center-columbus-2/,39.9740158,-82.9986272
Columbus,https://www.datacentermap.com/usa/ohio/columbus/,Citynet Columbus,"Citynet, LLC","251 Neilston St, Columbus, OH, 43215, USA",https://www.datacentermap.com/usa/ohio/columbus/citynet-columbus/,39.9681646,-82.9949078
Columbus,https://www.datacentermap.com/usa/ohio/columbus/,ICS Main POP,ICS,"226 North Fifth Street, Columbus, OH, 43215, USA",https://www.datacentermap.com/usa/ohio/columbus/ics-main-pop/,39.9676471,-82.9954277
Columbus,https://www.datacentermap.com/usa/ohio/columbus/,STACK Infrastructure NAL01A,STACK INFRASTRUCTURE,"7300 Souder Rd, New Albany, OH, 43054, USA",https://www.datacentermap.com/usa/ohio/columbus/stack-infrastructure-nal01a/,40.1063359,-82.8013976
Columbus,https://www.datacentermap.com/usa/ohio/columbus/,Amazon AWS CMH - Beech North Campus,Amazon AWS,"2890-2970 Beech Road, Johnstown, OH, 43031, USA",https://www.datacentermap.com/usa/ohio/columbus/amazon-aws-cmh-beech-north-campus/,40.09955065979579,-82.74947931850514
Columbus,https://www.datacentermap.com/usa/ohio/columbus/,Amazon AWS - 11793 Vans Valley,Amazon AWS,"11793 Vans Valley Rd, Galena, OH, 43021, USA",https://www.datacentermap.com/usa/ohio/columbus/amazon-aws-11793-vans-valley/,40.2180447,-82.8477812
Columbus,https://www.datacentermap.com/usa/ohio/columbus/,Amazon AWS CMH - Beech South Campus,Amazon AWS,"2540-2580 Beech Rd, Johnstown, OH, 43031, USA",https://www.datacentermap.com/usa/ohio/columbus/amazon-aws-cmh-beech-south-campus/,40.094602,-82.749444
Columbus,https://www.datacentermap.com/usa/ohio/columbus/,Microsoft - Beech Rd NW & Fitzwilliam Ln,Microsoft,"Beech Rd NW & Fitzwilliam Ln, New Albany, OH, 43031, USA",https://www.datacentermap.com/usa/ohio/columbus/microsoft-beech-rd-nw-fitzwilliam-ln/,40.10409187164981,-82.75695129446687
Columbus,https://www.datacentermap.com/usa/ohio/columbus/,Amazon AWS CMH - Project Cosmo Campus,Amazon AWS,"14684 Industrial Pkwy, Marysville, OH, 43040, USA",https://www.datacentermap.com/usa/ohio/columbus/amazon-aws-cmh-project-cosmos-campus/,40.220777,-83.324453
Columbus,https://www.datacentermap.com/usa/ohio/columbus/,Amazon AWS CMH - Newton Campus,Amazon AWS,"2575-2875 Newton Court, Johnstown, OH, 43031, USA",https://www.datacentermap.com/usa/ohio/columbus/amazon-aws-cmh-newton-campus/,40.0925731,-82.7301833
Columbus,https://www.datacentermap.com/usa/ohio/columbus/,Amazon AWS CMH - Warner Campus,Amazon AWS,"8567 Warner Road, Plain City, OH, 43064, USA",https://www.datacentermap.com/usa/ohio/columbus/amazon-aws-cmh-warner-campus/,40.118506,-83.200645
Columbus,https://www.datacentermap.com/usa/ohio/columbus/,Amazon AWS CMH - Hayden Campus,Amazon AWS,"5109-5125 Hayden Run Rd, Hillard, OH, 43026, USA",https://www.datacentermap.com/usa/ohio/columbus/amazon-aws-cmh-hayden-campus/,40.060025,-83.133336
Columbus,https://www.datacentermap.com/usa/ohio/columbus/,Amazon AWS CMH - Scioto Campus,Amazon AWS,"4120-4188 Scioto Darby Creek Rd, Hillard, OH, 43026, USA",https://www.datacentermap.com/usa/ohio/columbus/amazon-aws-cmh-scioto-campus/,40.01877833752981,-83.12436472729837
Columbus,https://www.datacentermap.com/usa/ohio/columbus/,Amazon AWS CMH - Crosby Campus,Amazon AWS,"6645-6685 Crosby Court, Dublin, OH, 43016, USA",https://www.datacentermap.com/usa/ohio/columbus/amazon-aws-cmh-crosby-campus/,40.10214145651132,-83.19967546094603
Columbus,https://www.datacentermap.com/usa/ohio/columbus/,Amazon AWS CMH - Project Cosmo Bldg A,Amazon AWS,"14684 Industrial Pkwy, Marysville, OH, 43040, USA",https://www.datacentermap.com/usa/ohio/columbus/amazon-aws-cmh-project-cosmos-bldg-a/,40.220339,-83.323343
Columbus,https://www.datacentermap.com/usa/ohio/columbus/,Amazon AWS CMH - Industrial Parkway Campus,Amazon AWS,"8619 Industrial Parkway, Plain City, OH, 43064, USA",https://www.datacentermap.com/usa/ohio/columbus/aws-cmh-industrial-parkway-campus/,40.134617,-83.21247
Columbus,https://www.datacentermap.com/usa/ohio/columbus/,Amazon AWS CMH - Project Cosmo Bldg B,Amazon AWS,"14684 Industrial Pkwy, Marysville, OH, 43040, USA",https://www.datacentermap.com/usa/ohio/columbus/amazon-aws-cmh-project-cosmos-bldg-b/,40.220803,-83.325634
Columbus,https://www.datacentermap.com/usa/ohio/columbus/,Google New Albany Data Center,Google,"1101 Beech Rd SW, New Albany, OH, 43054, USA",https://www.datacentermap.com/usa/ohio/columbus/google-new-albany/,40.0588973,-82.76899519999999
Columbus,https://www.datacentermap.com/usa/ohio/columbus/,LexisNexis Hilliard,LexisNexis,"5000 Britton Pkwy, Hilliard, OH, 43026, USA",https://www.datacentermap.com/usa/ohio/columbus/lexisnexis-hilliard/,40.0545021,-83.1324865
Columbus,https://www.datacentermap.com/usa/ohio/columbus/,Refugee Rd SW,Microsoft,"Refugee Rd SW, Pataskala, OH, 43062, USA",https://www.datacentermap.com/usa/ohio/columbus/refugee-rd-sw/,39.97801244275905,-82.71563947744693
Columbus,https://www.datacentermap.com/usa/ohio/columbus/,Amazon AWS CMH - 2560 Beech,Amazon AWS,"2560 Beech Rd, Johnstown, OH, 43031, USA",https://www.datacentermap.com/usa/ohio/columbus/amazon-aws-cmh-2560-beech/,40.09364363468491,-82.75152185076202
Columbus,https://www.datacentermap.com/usa/ohio/columbus/,Amazon AWS CMH - 6685 Crosby,Amazon AWS,"6685 Crosby Court, Dublin, OH, 43016, USA",https://www.datacentermap.com/usa/ohio/columbus/amazon-aws-cmh-6685-crosby/,40.10353539997982,-83.19987394134975
Columbus,https://www.datacentermap.com/usa/ohio/columbus/,QTS New Albany 3,QTS Data Centers,"6140 Babbitt Rd, New Albany, OH, 43054, USA",https://www.datacentermap.com/usa/ohio/columbus/qts-new-albany-3/,40.07446590000001,-82.7704656
Columbus,https://www.datacentermap.com/usa/ohio/columbus/,Amazon AWS CMH - 5121 Hayden,Amazon AWS,"5121 Hayden Run Rd, Hillard, OH, 43026, USA",https://www.datacentermap.com/usa/ohio/columbus/amazon-aws-cmh-5121-hayden/,40.058323,-83.134125
Columbus,https://www.datacentermap.com/usa/ohio/columbus/,Amazon AWS CMH - 5117 Hayden,Amazon AWS,"5117 Hayden Run Rd, Hillard, OH, 43026, USA",https://www.datacentermap.com/usa/ohio/columbus/amazon-aws-cmh-5117-hayden/,40.059351,-83.134584
Columbus,https://www.datacentermap.com/usa/ohio/columbus/,Amazon AWS CMH - 8619 Industrial A,Amazon AWS,"8619 Industrial Parkway, Plain City, OH, 43064, USA",https://www.datacentermap.com/usa/ohio/columbus/amazon-aws-cmh-8619-industrial-a/,40.134173,-83.215798
Columbus,https://www.datacentermap.com/usa/ohio/columbus/,Microsoft - Thornwood Dr SW,Microsoft,"Thornwood Dr SW & Hallie Ln Rd, Heath, OH, 43056, USA",https://www.datacentermap.com/usa/ohio/columbus/microsoft-thornwood-dr-sw/,40.0249864307488,-82.48456568293972
Columbus,https://www.datacentermap.com/usa/ohio/columbus/,Amazon AWS CMH - 8619 Industrial B,Amazon AWS,"8619 Industrial Parkway, Plain City, OH, 43064, USA",https://www.datacentermap.com/usa/ohio/columbus/amazon-aws-cmh-8619-industrial-b/,40.135552,-83.212937
Columbus,https://www.datacentermap.com/usa/ohio/columbus/,Google Lockbourne Data Center,Google,"5076 S High St, Lockbourne, OH, 43137, USA",https://www.datacentermap.com/usa/ohio/columbus/google-lockbourne-data-center/,39.85205647166742,-82.99491222640857
Columbus,https://www.datacentermap.com/usa/ohio/columbus/,Amazon AWS CMH - Beech North B,Amazon AWS,"2890-2970 Beech Road, Johnstown, OH, 43031, USA",https://www.datacentermap.com/usa/ohio/columbus/amazon-aws-cmh-beech-north-b/,40.09884674969077,-82.74719679318787
Columbus,https://www.datacentermap.com/usa/ohio/columbus/,Amazon AWS CMH - 8567 Warner B,Amazon AWS,"8567 Warner Road, Plain City, OH, 43064, USA",https://www.datacentermap.com/usa/ohio/columbus/amazon-aws-cmh-8567-warner-b/,40.117342,-83.202064
Columbus,https://www.datacentermap.com/usa/ohio/columbus/,Windstream Columbus,Windstream,"180 E Broad St, Columbus, OH, 43215, USA",https://www.datacentermap.com/usa/ohio/columbus/windstream-columbus/,39.9631827,-82.99599429999999
Columbus,https://www.datacentermap.com/usa/ohio/columbus/,Amazon AWS CMH - Beech North E,Amazon AWS,"2890-2970 Beech Road, Johnstown, OH, 43031, USA",https://www.datacentermap.com/usa/ohio/columbus/amazon-aws-cmh-beech-north-e/,40.10084114274191,-82.74682689778072
Columbus,https://www.datacentermap.com/usa/ohio/columbus/,Google Johnstown,Google,"2565 Harrison Rd NW, Johnstown, OH, 43031, USA",https://www.datacentermap.com/usa/ohio/columbus/google-johnstown/,40.0942197,-82.73618499999999
Columbus,https://www.datacentermap.com/usa/ohio/columbus/,Amazon AWS CMH - 2675 Newton,Amazon AWS,"2675 Newton Court, Johnstown, OH, 43031, USA",https://www.datacentermap.com/usa/ohio/columbus/amazon-aws-cmh-2675-newton/,40.09335627596008,-82.73213710555412
Columbus,https://www.datacentermap.com/usa/ohio/columbus/,Amazon AWS CMH - 6645 Crosby,Amazon AWS,"6645 Crosby Court, Dublin, OH, 43016, USA",https://www.datacentermap.com/usa/ohio/columbus/amazon-aws-cmh-6645-crosby/,40.099953873758,-83.19943187123766
Columbus,https://www.datacentermap.com/usa/ohio/columbus/,Amazon AWS CMH - 2580 Beech,Amazon AWS,"2580 Beech Rd, Johnstown, OH, 43031, USA",https://www.datacentermap.com/usa/ohio/columbus/amazon-aws-cmh-2580-beech/,40.09647897092034,-82.75196202960707
Columbus,https://www.datacentermap.com/usa/ohio/columbus/,Google Lancaster Data Center,Google,"105 Whiley Rd, Lancaster, OH, 43130, USA",https://www.datacentermap.com/usa/ohio/columbus/google-lancaster-data-center/,39.7261137,-82.68339580000001
Columbus,https://www.datacentermap.com/usa/ohio/columbus/,Amazon AWS CMH - 2550 Beech,Amazon AWS,"2550 Beech Rd, Johnstown, OH, 43031, USA",https://www.datacentermap.com/usa/ohio/columbus/amazon-aws-cmh-2550-beech/,40.09401452874965,-82.74742627359123
Columbus,https://www.datacentermap.com/usa/ohio/columbus/,Microsoft - 129 N High St,Microsoft,"129 N High St, Hebron, OH, 43025, USA",https://www.datacentermap.com/usa/ohio/columbus/microsoft-129-n-high-st/,39.967112,-82.49553399999999
Columbus,https://www.datacentermap.com/usa/ohio/columbus/,Amazon AWS CMH - 8567 Warner D,Amazon AWS,"8567 Warner Road, Plain City, OH, 43064, USA",https://www.datacentermap.com/usa/ohio/columbus/amazon-aws-cmh-8567-warner-d/,40.119052,-83.203211
Columbus,https://www.datacentermap.com/usa/ohio/columbus/,Amazon AWS CMH - Scioto C,Amazon AWS,"4120-4188 Scioto Darby Creek Rd, Hillard, OH, 43026, USA",https://www.datacentermap.com/usa/ohio/columbus/amazon-aws-cmh-scioto-c/,40.02138753670318,-83.1233708050212
Columbus,https://www.datacentermap.com/usa/ohio/columbus/,Amazon AWS CMH - 6675 Crosby,Amazon AWS,"6675 Crosby Court, Dublin, OH, 43016, USA",https://www.datacentermap.com/usa/ohio/columbus/amazon-aws-cmh-6675-crosby/,40.10256930357601,-83.19971154824735
Columbus,https://www.datacentermap.com/usa/ohio/columbus/,Amazon AWS CMH - 4624 Cosgray,Amazon AWS,"4624 Cosgray Rd, Hillard, OH, 43026, USA",https://www.datacentermap.com/usa/ohio/columbus/amazon-aws-cmh-4624-cosgray/,40.050403,-83.175652
Columbus,https://www.datacentermap.com/usa/ohio/columbus/,Amazon AWS CMH - 5125 Hayden,Amazon AWS,"5125 Hayden Run Rd, Hillard, OH, 43026, USA",https://www.datacentermap.com/usa/ohio/columbus/amazon-aws-cmh-5125-hayden/,40.060745,-83.132698
Columbus,https://www.datacentermap.com/usa/ohio/columbus/,QTS New Albany 2 DC1,QTS Data Centers,"785 Beech Road SW, New Albany, OH, 43054, USA",https://www.datacentermap.com/usa/ohio/columbus/qts-new-albany2/,40.06899569999999,-82.75396339999999
Columbus,https://www.datacentermap.com/usa/ohio/columbus/,Amazon AWS CMH - 8619 Industrial C,Amazon AWS,"8619 Industrial Parkway, Plain City, OH, 43064, USA",https://www.datacentermap.com/usa/ohio/columbus/amazon-aws-cmh-8619-industrial-c/,40.133206,-83.214885
Columbus,https://www.datacentermap.com/usa/ohio/columbus/,Amazon AWS CMH - 4600 Cosgray,Amazon AWS,"4600 Cosgray Rd, Hillard, OH, 43026, USA",https://www.datacentermap.com/usa/ohio/columbus/amazon-aws-cmh-4600-cosgray/,40.048134,-83.175354
Columbus,https://www.datacentermap.com/usa/ohio/columbus/,Amazon AWS CMH - Beech North D,Amazon AWS,"2890-2970 Beech Road, Johnstown, OH, 43031, USA",https://www.datacentermap.com/usa/ohio/columbus/amazon-aws-cmh-beech-north-d/,40.10050299717061,-82.74683591961991
Columbus,https://www.datacentermap.com/usa/ohio/columbus/,Compass New Albany,Compass Datacenters,"6625 New Albany Rd E, New Albany, OH, 43054, USA",https://www.datacentermap.com/usa/ohio/columbus/compass-new-albany/,40.1037145,-82.8089653
Columbus,https://www.datacentermap.com/usa/ohio/columbus/,Amazon AWS CMH - Scioto F,Amazon AWS,"4120-4188 Scioto Darby Creek Rd, Hillard, OH, 43026, USA",https://www.datacentermap.com/usa/ohio/columbus/amazon-aws-cmh-scioto-f/,40.01646586127011,-83.12647143850737
Columbus,https://www.datacentermap.com/usa/ohio/columbus/,Amazon AWS CMH - 6655 Crosby,Amazon AWS,"6655 Crosby Court, Dublin, OH, 43016, USA",https://www.datacentermap.com/usa/ohio/columbus/amazon-aws-cmh-6655-crosby/,40.10078198906285,-83.19945893675472
Columbus,https://www.datacentermap.com/usa/ohio/columbus/,Amazon AWS CMH - 2775 Newton,Amazon AWS,"2775 Newton Court, Johnstown, OH, 43031, USA",https://www.datacentermap.com/usa/ohio/columbus/amazon-aws-cmh-2775-newton/,40.09436579311569,-82.7322873092463
Columbus,https://www.datacentermap.com/usa/ohio/columbus/,Amazon AWS CMH - Scioto E,Amazon AWS,"4120-4188 Scioto Darby Creek Rd, Hillard, OH, 43026, USA",https://www.datacentermap.com/usa/ohio/columbus/amazon-aws-cmh-scioto-e/,40.01930059247275,-83.12287727858394
Columbus,https://www.datacentermap.com/usa/ohio/columbus/,Amazon AWS CMH - 2570 Beech,Amazon AWS,"2570 Beech Rd, Johnstown, OH, 43031, USA",https://www.datacentermap.com/usa/ohio/columbus/amazon-aws-cmh-2570-beech/,40.09459526672961,-82.75147081553362
Columbus,https://www.datacentermap.com/usa/ohio/columbus/,Aligned - 6770 Mink St,Aligned Data Centers,"6770 Mink St SW, Pataskala, OH, 43062, USA",https://www.datacentermap.com/usa/ohio/columbus/aligned-6770-mink-st/,39.99284979999999,-82.730099
Columbus,https://www.datacentermap.com/usa/ohio/columbus/,Amazon AWS CMH - Scioto G,Amazon AWS,"4120-4188 Scioto Darby Creek Rd, Hillard, OH, 43026, USA",https://www.datacentermap.com/usa/ohio/columbus/amazon-aws-cmh-scioto-g/,40.01545518949632,-83.12448660392279
Columbus,https://www.datacentermap.com/usa/ohio/columbus/,Amazon AWS CMH - Scioto D,Amazon AWS,"4120-4188 Scioto Darby Creek Rd, Hillard, OH, 43026, USA",https://www.datacentermap.com/usa/ohio/columbus/amazon-aws-cmh-scioto-d/,40.0193334582309,-83.12454024810076
Columbus,https://www.datacentermap.com/usa/ohio/columbus/,Amazon AWS CMH - 4612 Cosgray,Amazon AWS,"4612 Cosgray Rd, Hillard, OH, 43026, USA",https://www.datacentermap.com/usa/ohio/columbus/amazon-aws-cmh-4612-cosgray/,40.049333,-83.175443
Columbus,https://www.datacentermap.com/usa/ohio/columbus/,Amazon AWS CMH - 8619 Industrial D,Amazon AWS,"8619 Industrial Parkway, Plain City, OH, 43064, USA",https://www.datacentermap.com/usa/ohio/columbus/amazon-aws-cmh-8619-industrial-d/,40.134772,-83.211574
Columbus,https://www.datacentermap.com/usa/ohio/columbus/,Amazon AWS CMH - 8567 Warner A,Amazon AWS,"8567 Warner Road, Plain City, OH, 43064, USA",https://www.datacentermap.com/usa/ohio/columbus/amazon-aws-cmh-8567-warner-a/,40.1163,-83.2015
Columbus,https://www.datacentermap.com/usa/ohio/columbus/,Amazon AWS CMH - 6665 Crosby,Amazon AWS,"6665 Crosby Court, Dublin, OH, 43016, USA",https://www.datacentermap.com/usa/ohio/columbus/amazon-aws-cmh-6665-crosby/,40.10179641657541,-83.19966643905222
Columbus,https://www.datacentermap.com/usa/ohio/columbus/,Amazon AWS CMH - Beech North C,Amazon AWS,"2890-2970 Beech Road, Johnstown, OH, 43031, USA",https://www.datacentermap.com/usa/ohio/columbus/amazon-aws-cmh-beech-north-c/,40.09948164932315,-82.74701635640388
Columbus,https://www.datacentermap.com/usa/ohio/columbus/,Amazon AWS CMH - Scioto B,Amazon AWS,"4120-4188 Scioto Darby Creek Rd, Hillard, OH, 43026, USA",https://www.datacentermap.com/usa/ohio/columbus/amazon-aws-cmh-scioto-b/,40.02237347240577,-83.1246260787855
Columbus,https://www.datacentermap.com/usa/ohio/columbus/,3000-3007 Etna Pkwy,Microsoft,"3000-3007 Etna Pkwy, Pataskala, OH, 43062, USA",https://www.datacentermap.com/usa/ohio/columbus/3000-3007-etna-pkwy/,39.977319,-82.70725399999999
Columbus,https://www.datacentermap.com/usa/ohio/columbus/,Meta New Albany Data Center,Meta,"1 Community Cir, Etna, OH, 43062, USA",https://www.datacentermap.com/usa/ohio/columbus/meta-new-albany-data-center/,40.06835517036055,-82.75031302366902
Columbus,https://www.datacentermap.com/usa/ohio/columbus/,Amazon AWS CMH - Beech North A,Amazon AWS,"2890-2970 Beech Road, Johnstown, OH, 43031, USA",https://www.datacentermap.com/usa/ohio/columbus/amazon-aws-cmh-beech-north-a/,40.09801170963299,-82.7470253782431
Columbus,https://www.datacentermap.com/usa/ohio/columbus/,CyrusOne - New Albany,CyrusOne Data Centers,"12181 Jug St, Johnstown, OH, 43031, USA",https://www.datacentermap.com/usa/ohio/columbus/cyrusone-new-albany/,40.0953747,-82.7180645
Columbus,https://www.datacentermap.com/usa/ohio/columbus/,Amazon AWS CMH - 8567 Warner C,Amazon AWS,"8567 Warner Road, Plain City, OH, 43064, USA",https://www.datacentermap.com/usa/ohio/columbus/amazon-aws-cmh-8567-warner-c/,40.118156,-83.202704
Columbus,https://www.datacentermap.com/usa/ohio/columbus/,Amazon AWS CMH - 5109 Hayden,Amazon AWS,"5109 Hayden Run Rd, Hillard, OH, 43026, USA",https://www.datacentermap.com/usa/ohio/columbus/amazon-aws-cmh-5109-hayden/,40.061126,-83.134958
Columbus,https://www.datacentermap.com/usa/ohio/columbus/,Amazon AWS CMH - Cosgray Campus,Amazon AWS,"4600-4636 Cosgray Rd, Hillard, OH, 43026, USA",https://www.datacentermap.com/usa/ohio/columbus/amazon-aws-cmh-cosgray-campus/,40.049953,-83.177429
Columbus,https://www.datacentermap.com/usa/ohio/columbus/,Amazon AWS CMH - 2540 Beech,Amazon AWS,"2540 Beech Rd, Johnstown, OH, 43031, USA",https://www.datacentermap.com/usa/ohio/columbus/amazon-aws-cmh-2540-beech/,40.09292136147439,-82.74772610555813
Columbus,https://www.datacentermap.com/usa/ohio/columbus/,Amazon AWS CMH - 5113 Hayden,Amazon AWS,"5113 Hayden Run Rd, Hillard, OH, 43026, USA",https://www.datacentermap.com/usa/ohio/columbus/amazon-aws-cmh-5113-hayden/,40.059351,-83.134584
Columbus,https://www.datacentermap.com/usa/ohio/columbus/,Amazon AWS CMH - 4636 Cosgray,Amazon AWS,"4636 Cosgray Rd, Hillard, OH, 43026, USA",https://www.datacentermap.com/usa/ohio/columbus/amazon-aws-cmh-4636-cosgray/,40.051503,-83.175652
Columbus,https://www.datacentermap.com/usa/ohio/columbus/,Amazon AWS CMH - Scioto A,Amazon AWS,"4120-4188 Scioto Darby Creek Rd, Hillard, OH, 43026, USA",https://www.datacentermap.com/usa/ohio/columbus/amazon-aws-cmh-scioto-a/,40.02139575289289,-83.12599936974131
Columbus,https://www.datacentermap.com/usa/ohio/columbus/,Aligned - Conesville Industrial Park,Aligned Data Centers,"Conesville Industrial Park, 47201 Co Rd 273, Conesville, OH, 43811, USA",https://www.datacentermap.com/usa/ohio/columbus/aligned-cip/,40.1829375,-81.8745625
Columbus,https://www.datacentermap.com/usa/ohio/columbus/,Lumen Columbus 2,Lumen,"226 North Fifth Street, Columbus, OH, 43215, USA",https://www.datacentermap.com/usa/ohio/columbus/lumen-columbus-2/,39.9677617,-82.9955572
Columbus,https://www.datacentermap.com/usa/ohio/columbus/,Borden Building,Unknown Company,"180 E Broad St, Columbus, OH, 43215, USA",https://www.datacentermap.com/usa/ohio/columbus/borden-building/,39.96322395338774,-82.99585341086328
Columbus,https://www.datacentermap.com/usa/ohio/columbus/,DataBank - 251 Neilston St,DataBank,"251 Neilston St, Columbus, OH, 43215, USA",https://www.datacentermap.com/usa/ohio/columbus/zcolo-251-neilston/,39.9681907,-82.9949322
Columbus,https://www.datacentermap.com/usa/ohio/columbus/,Lumen Columbus,Lumen,"226 North Fifth Street, Columbus, OH, 43215, USA",https://www.datacentermap.com/usa/ohio/columbus/level3-columbus/,39.967883,-82.995867
Columbus,https://www.datacentermap.com/usa/ohio/columbus/,Crown Castle Columbus (OH1),CROWN CASTLE,"101 E. Town St., Columbus, OH, 43215, USA",https://www.datacentermap.com/usa/ohio/columbus/datacenter-101-llc/,39.958862,-82.996794
Columbus,https://www.datacentermap.com/usa/ohio/columbus/,Amazon AWS CMH - 2575 Newton,Amazon AWS,"2575 Newton Court, Johnstown, OH, 43031, USA",https://www.datacentermap.com/usa/ohio/columbus/amazon-aws-cmh-2575-newton/,40.09217438318885,-82.72758807944813
Columbus,https://www.datacentermap.com/usa/ohio/columbus/,Amazon AWS CMH - 2875 Newton,Amazon AWS,"2875 Newton Court, Johnstown, OH, 43031, USA",https://www.datacentermap.com/usa/ohio/columbus/amazon-aws-cmh-2875-newton/,40.09217438318885,-82.72758807944813
Columbus,https://www.datacentermap.com/usa/ohio/columbus/,Lumen Columbus 1,Lumen,"266 North 5th St, Columbus, OH, 43215, USA",https://www.datacentermap.com/usa/ohio/columbus/level3-columbus1/,39.9684066,-82.9958383
Columbus,https://www.datacentermap.com/usa/ohio/columbus/,QTS New Albany 1 DC1,QTS Data Centers,"1225 Beech Rd SW, New Albany, OH, 43054, USA",https://www.datacentermap.com/usa/ohio/columbus/qts-new-albany-1-dc1/,40.06377,-82.757933
Columbus,https://www.datacentermap.com/usa/ohio/columbus/,QTS New Albany 1 DC2,QTS Data Centers,"1275 Beech Rd SW, New Albany, OH, 43054, USA",https://www.datacentermap.com/usa/ohio/columbus/qts-new-albany-1-dc2/,40.0673771,-82.75438190000001
Columbus,https://www.datacentermap.com/usa/ohio/columbus/,Hostrunway Columbus,Hostrunway,", Blacklick, OH, 43004, USA",https://www.datacentermap.com/usa/ohio/columbus/hostrunway-columbus/,,
Columbus,https://www.datacentermap.com/usa/ohio/columbus/,Unmapped Data Centers,,", Columbus, OH, , USA",https://www.datacentermap.comNone,40.000268,-82.998962
Cleveland,https://www.datacentermap.com/usa/ohio/cleveland/,H5 Data Centers Cleveland,H5 Data Centers,"1625 Rockwell Ave, Cleveland, OH, 44114, USA",https://www.datacentermap.com/usa/ohio/cleveland/h5dc-cleveland/,41.5066085,-81.6830508
Cleveland,https://www.datacentermap.com/usa/ohio/cleveland/,Fusion Connect - Cleveland,Fusion Connect,"1621 Euclid Ave, Cleveland, OH, 44115, USA",https://www.datacentermap.com/usa/ohio/cleveland/fidelity-voice-and-data/,41.5016139,-81.680445
Cleveland,https://www.datacentermap.com/usa/ohio/cleveland/,Ark Data Centers Independence,Ark Data Centers,"7500 E. Pleasant Valley Rd, Independence, OH, 44131, USA",https://www.datacentermap.com/usa/ohio/cleveland/involta-independence/,41.361855,-81.64703
Cleveland,https://www.datacentermap.com/usa/ohio/cleveland/,Cogent Data Center - Cleveland,"Cogent Communications, Inc.","1621 Euclid Ave, Cleveland, OH, 44115, USA",https://www.datacentermap.com/usa/ohio/cleveland/cogent-cleveland/,41.501866,-81.680504
Cleveland,https://www.datacentermap.com/usa/ohio/cleveland/,Keith Building,K&D Real Estate Services,"1621 Euclid Avenue, Cleveland, OH, 44115, USA",https://www.datacentermap.com/usa/ohio/cleveland/keith-building/,41.5016139,-81.680445
Cleveland,https://www.datacentermap.com/usa/ohio/cleveland/,BlueBridge Networks,"BlueBridge Networks, LLC","1255 Euclid Ave, Cleveland, OH, 44115, USA",https://www.datacentermap.com/usa/ohio/cleveland/bluebridge-networks/,41.501354,-81.683565
Cleveland,https://www.datacentermap.com/usa/ohio/cleveland/,Expedient Garfield Heights 2,Expedient Data Centers,"15248 NEO Parkway, Cleveland, OH, 44128, USA",https://www.datacentermap.com/usa/ohio/cleveland/expedient-cleveland-152/,41.429344,-81.573989
Cleveland,https://www.datacentermap.com/usa/ohio/cleveland/,Cleveland Data Center,Green Bridge Real Estate,"Corporate Drive / 12875, Cleveland, OH, 44130, USA",https://www.datacentermap.com/usa/ohio/cleveland/12875-corporate/,41.408119,-81.78335
Cleveland,https://www.datacentermap.com/usa/ohio/cleveland/,Aligned NEO-01,Aligned Data Centers,"2509 Hayes Ave, Sandusky, OH, 44870, USA",https://www.datacentermap.com/usa/ohio/cleveland/aligned-neo-01/,41.4308376,-82.7171388
Cleveland,https://www.datacentermap.com/usa/ohio/cleveland/,BlueBridge Networks,"BlueBridge Networks, LLC","5915 Landerbrook, Mayfield Hts, OH, 44124, USA",https://www.datacentermap.com/usa/ohio/cleveland/bluebridge-mayfield-hts/,41.5059513,-81.4673161
Cleveland,https://www.datacentermap.com/usa/ohio/cleveland/,DataBank CLE1 - Downtown Cleveland,DataBank,"1255 Euclid Avenue, Cleveland, OH, 44115, USA",https://www.datacentermap.com/usa/ohio/cleveland/databank-cleveland/,41.5010215,-81.6841024
Cleveland,https://www.datacentermap.com/usa/ohio/cleveland/,NCS Richmond Heights,NCS Datacom,"26391 Curtiss Wright Pkwy, Richmond Heights, OH, 44143, USA",https://www.datacentermap.com/usa/ohio/cleveland/richmond-heights/,41.5696127,-81.4897113
Cleveland,https://www.datacentermap.com/usa/ohio/cleveland/,Public Square Tech Center,Morgan Reed Group,"200 Euclid Avenue, Cleveland, OH, 44114, USA",https://www.datacentermap.com/usa/ohio/cleveland/public-square-tech-center/,41.498707,-81.691567
Cleveland,https://www.datacentermap.com/usa/ohio/cleveland/,Expedient Lewis Center,Expedient Data Centers,"281 E Powell Rd, Lewis Center, OH, 43035, USA",https://www.datacentermap.com/usa/ohio/cleveland/expedient-lewis-center/,40.1545985,-83.014149
Cleveland,https://www.datacentermap.com/usa/ohio/cleveland/,Everstream Parma Data Center,Everstream,"12875 Corporate Dr, Parma, OH, 44130, USA",https://www.datacentermap.com/usa/ohio/cleveland/everstream-parma-data-center/,41.4079358,-81.7799783
Cleveland,https://www.datacentermap.com/usa/ohio/cleveland/,Bay Pointe Data Center,Bay Pointe,"2662 Brecksville Rd, Richfield, OH, 44286, USA",https://www.datacentermap.com/usa/ohio/cleveland/bay-pointe/,41.2084777,-81.6388251
Cleveland,https://www.datacentermap.com/usa/ohio/cleveland/,Cogent Data Center - Cleveland 2,"Cogent Communications, Inc.","2650 Rockefeller Ave, Cleveland, OH, 44115, USA",https://www.datacentermap.com/usa/ohio/cleveland/cogent-data-center-cleveland-2/,41.4847683,-81.6747708
Cleveland,https://www.datacentermap.com/usa/ohio/cleveland/,Windstream Cleveland,Windstream,"200 W Prospect Ave, Cleveland, OH, 44115, USA",https://www.datacentermap.com/usa/ohio/cleveland/windstream-cleveland/,41.49786,-81.6933205
Cleveland,https://www.datacentermap.com/usa/ohio/cleveland/,Mangobay Cleveland,Mango Bay Internet,"1277 E Schaaf Rd, Brooklyn Heights, OH, 44131, USA",https://www.datacentermap.com/usa/ohio/cleveland/mangobay-cleveland/,41.4130282,-81.6577313
Cleveland,https://www.datacentermap.com/usa/ohio/cleveland/,Expedient Garfield Heights 1,Expedient Data Centers,"15166 NEO Parkway, Cleveland, OH, 44128, USA",https://www.datacentermap.com/usa/ohio/cleveland/expedient-cleveland/,41.429872,-81.571632
Cleveland,https://www.datacentermap.com/usa/ohio/cleveland/,Lumen Cleveland 3,Lumen,"1621 Euclid Avenue, Cleveland, OH, 44115, USA",https://www.datacentermap.com/usa/ohio/cleveland/level3-cleveland3/,41.5016671,-81.6804264
Cleveland,https://www.datacentermap.com/usa/ohio/cleveland/,Sterling Telecom Office Building,"Sterling Telecom Office Building, LLC","1255 Euclid Avenue, Cleveland, OH, 44115, USA",https://www.datacentermap.com/usa/ohio/cleveland/sterling-building/,41.5011623,-81.6834628
Cleveland,https://www.datacentermap.com/usa/ohio/cleveland/,Lumen Cleveland 1,Lumen,"4000 Chester Ave, Cleveland, OH, 44145, USA",https://www.datacentermap.com/usa/ohio/cleveland/level3-cleveland1/,41.504933,-81.657748
Cleveland,https://www.datacentermap.com/usa/ohio/cleveland/,Lumen Cleveland 2,Lumen,"1228 Euclid, Cleveland, OH, 44145, USA",https://www.datacentermap.com/usa/ohio/cleveland/level3-cleveland2/,41.5002762,-81.6839155
Cincinnati,https://www.datacentermap.com/usa/ohio/cincinnati/,Flexential Cincinnati Data Center,Flexential,"5307 Muhlhauser Rd, Hamilton, OH, 45011, USA",https://www.datacentermap.com/usa/ohio/cincinnati/flexential-cincinnati/,39.389509,-84.534302
Cincinnati,https://www.datacentermap.com/usa/ohio/cincinnati/,"DartPoints Cincinnati, OH - CVG01",DartPoints,"302 West Third Street, Cincinnati, OH, 45202, USA",https://www.datacentermap.com/usa/ohio/cincinnati/profitabilitynet/,39.098141,-84.517673
Cincinnati,https://www.datacentermap.com/usa/ohio/cincinnati/,CyrusOne CIN97 - Cincinnati,CyrusOne Data Centers,"4600 McAuley Place, Blue Ash, OH, 45242, USA",https://www.datacentermap.com/usa/ohio/cincinnati/cyrusone-ohio-blue-ash/,39.2444984,-84.380769
Cincinnati,https://www.datacentermap.com/usa/ohio/cincinnati/,CyrusOne CIN4 - Hamilton,CyrusOne Data Centers,"103 Knightsbridge Drive, Hamilton, OH, 45011, USA",https://www.datacentermap.com/usa/ohio/cincinnati/cyrusone-ohio-hamilton/,39.3870117,-84.5649065
Cincinnati,https://www.datacentermap.com/usa/ohio/cincinnati/,H5 Data Centers Cincinnati II,H5 Data Centers,"925 Dalton Ave, Cincinnati, OH, 45203, USA",https://www.datacentermap.com/usa/ohio/cincinnati/h5-cincinnati-ii/,39.1058513,-84.5365697
Cincinnati,https://www.datacentermap.com/usa/ohio/cincinnati/,CyrusOne CIN3 - Mason,CyrusOne Data Centers,"4800 Parkway Drive, Cincinnati, OH, 45040, USA",https://www.datacentermap.com/usa/ohio/cincinnati/cyrusone-ohio-mason/,39.209213,-84.469773
Cincinnati,https://www.datacentermap.com/usa/ohio/cincinnati/,H5 Data Centers Cincinnati,H5 Data Centers,"360 Gest Street, Cincinnati, OH, 45203, USA",https://www.datacentermap.com/usa/ohio/cincinnati/h5dc-cincinnati/,39.0979348,-84.5240947
Cincinnati,https://www.datacentermap.com/usa/ohio/cincinnati/,CyrusOne CIN2 - Cincinnati,CyrusOne Data Centers,"229 West 7th St., Cincinnati, OH, 45202, USA",https://www.datacentermap.com/usa/ohio/cincinnati/cyrusone-cincinnati/,39.1030375,-84.517724
Cincinnati,https://www.datacentermap.com/usa/ohio/cincinnati/,CenterGrid - Hamilton,CenterGrid,"101 Knightsbridge Dr, Hamilton, OH, 45011, USA",https://www.datacentermap.com/usa/ohio/cincinnati/centergrid-hamilton/,39.3848676,-84.566587
Cincinnati,https://www.datacentermap.com/usa/ohio/cincinnati/,CyrusOne Cincinnati (Gold Coast),CyrusOne Data Centers,"11500 Goldcoast Drive, Cincinnati, OH, 45249, USA",https://www.datacentermap.com/usa/ohio/cincinnati/cyrusone-cincinnati-gold-coast/,39.2754728,-84.3503835
Cincinnati,https://www.datacentermap.com/usa/ohio/cincinnati/,Encore Technologies NOR1,Encore Technologies,"4620 Wesley Ave, Cincinnati, OH, 45212, USA",https://www.datacentermap.com/usa/ohio/cincinnati/encore-technologies-nor1/,39.1605357,-84.44869
Cincinnati,https://www.datacentermap.com/usa/ohio/cincinnati/,Encore Technologies BLU1,Encore Technologies,"11515 Grooms Rd, Blue Ash, OH, 45242, USA",https://www.datacentermap.com/usa/ohio/cincinnati/encore-technologies-blu1/,39.2775428,-84.3695712
Cincinnati,https://www.datacentermap.com/usa/ohio/cincinnati/, I74 Wired Data Center,I74 Wired,"2300 Montana Ave, Cincinnati, OH, 45211, USA",https://www.datacentermap.com/usa/ohio/cincinnati/hot-site-data-center/,39.156263,-84.570958
Cincinnati,https://www.datacentermap.com/usa/ohio/cincinnati/,DataBank - 334 Gest St,DataBank,"334 Gest St, Cincinnati, OH, 45203, USA",https://www.datacentermap.com/usa/ohio/cincinnati/zcolo-334-gest-st/,39.0978164,-84.5249577
Cincinnati,https://www.datacentermap.com/usa/ohio/cincinnati/,Lumen Cincinnati 3,Lumen,"1428 W. 8th St, Cincinnati, OH, 45203, USA",https://www.datacentermap.com/usa/ohio/cincinnati/level3-cincinnati3/,39.104741,-84.542472
Cincinnati,https://www.datacentermap.com/usa/ohio/cincinnati/,Lumen Cincinnati 1,Lumen,"400 Pike Street, Cincinnati, OH, 45202, USA",https://www.datacentermap.com/usa/ohio/cincinnati/level3-cincinnati/,39.10204,-84.50345
Cincinnati,https://www.datacentermap.com/usa/ohio/cincinnati/,Lumen Cincinnati 2,Lumen,"9490 Meridian Way, West Chester, OH, 45069, USA",https://www.datacentermap.com/usa/ohio/cincinnati/twtc-cincinnati/,39.328216,-84.437407
Cincinnati,https://www.datacentermap.com/usa/ohio/cincinnati/,CBTS Gold Coast Data Center,CBTS,"55 Miners Way, Blue Ash, OH, 45249, USA",https://www.datacentermap.com/usa/ohio/cincinnati/cbts-gold-coast-data-center/,39.2320029,-84.3782734
Cincinnati,https://www.datacentermap.com/usa/ohio/cincinnati/,CBTS Lebanon Data Center,CBTS,"4433 Tree Top Way, Lebanon, OH, 45036, USA",https://www.datacentermap.com/usa/ohio/cincinnati/cbts-lebanon-data-center/,39.4353373,-84.2029922
Cincinnati,https://www.datacentermap.com/usa/ohio/cincinnati/,CBTS Cincinnati Data Center,CBTS,"1 Main St., Cincinnati, OH, 45202, USA",https://www.datacentermap.com/usa/ohio/cincinnati/cbts-cincinnati-data-center/,39.131465,-84.700585
Cincinnati,https://www.datacentermap.com/usa/ohio/cincinnati/,CBTS Hamilton Data Center,CBTS,"123 Pine St, Hamilton, OH, 45011, USA",https://www.datacentermap.com/usa/ohio/cincinnati/cbts-hamilton-data-center/,39.4065896,-84.544555
Akron,https://www.datacentermap.com/usa/ohio/akron/,LightSpeed Data Center,LightSpeed Hosting,"387 Medina Rd, Medina, OH, 44256, USA",https://www.datacentermap.com/usa/ohio/akron/medina387/,41.1383532,-81.7005967
Akron,https://www.datacentermap.com/usa/ohio/akron/,Ark Data Centers Akron 1,Ark Data Centers,"191 E. Miller Ave, Akron, OH, 44301, USA",https://www.datacentermap.com/usa/ohio/akron/involta-akron/,41.056267,-81.519445
Akron,https://www.datacentermap.com/usa/ohio/akron/,Ark Data Centers Akron 2,Ark Data Centers,"191 E. Miller Ave, Akron, OH, 44301, USA",https://www.datacentermap.com/usa/ohio/akron/involta-akron-2/,41.05734349999999,-81.52236169999999
Akron,https://www.datacentermap.com/usa/ohio/akron/,Cogent Data Center - Akron,"Cogent Communications, Inc.","120 N Broadway St, Akron, OH, 44304, USA",https://www.datacentermap.com/usa/ohio/akron/cogent-data-center-akron/,41.0874311,-81.51386699999999
Akron,https://www.datacentermap.com/usa/ohio/akron/,FairlawnGig Service Center,FairlawnGig,"3300 Fairlawn Service Drive, Fairlawn, OH, 44333, USA",https://www.datacentermap.com/usa/ohio/akron/fairlawngig-service-center/,41.1332031,-81.6294432
Akron,https://www.datacentermap.com/usa/ohio/akron/,Lumen Akron 2,Lumen,"110 South Alrington Street, Akron, OH, 44311, USA",https://www.datacentermap.com/usa/ohio/akron/level3-akron2/,41.069378,-81.491246
Toledo,https://www.datacentermap.com/usa/ohio/toledo/,Telesystem DC-1,"Buckeye Telesystem, Inc","4818 Angola Road, Toledo, OH, 43615, USA",https://www.datacentermap.com/usa/ohio/toledo/telesystem-i/,41.6238005,-83.6558587
Toledo,https://www.datacentermap.com/usa/ohio/toledo/,CISP Data Center,CISP,"3035 Moffat Rd, Toledo, OH, 43615, USA",https://www.datacentermap.com/usa/ohio/toledo/cisp/,41.6736053,-83.6907601
Canton,https://www.datacentermap.com/usa/ohio/canton/,Ark Data Centers Canton,Ark Data Centers,"4726 Hills and Dales Rd. NW, Canton, OH, 44708-1512, USA",https://www.datacentermap.com/usa/ohio/canton/securedata-365/,40.833054,-81.431979
Canton,https://www.datacentermap.com/usa/ohio/canton/,Untangled Technology Data Center,Untangled Technology,"401 Tuscarawas St W, Canton, OH, 44702, USA",https://www.datacentermap.com/usa/ohio/canton/untangled-technology/,40.799388,-81.377418
Springfield,https://www.datacentermap.com/usa/ohio/springfield-oh/,LexisNexis Springfield,LexisNexis,"601 Benjamin Dr, Springfield, OH, 45502, USA",https://www.datacentermap.com/usa/ohio/springfield-oh/lexisnexis-springfield/,39.9128669,-83.7238397
Lebanon,https://www.datacentermap.com/usa/ohio/lebanon/,CyrusOne CIN5 - Lebanon,CyrusOne Data Centers,"401 Kingsview Drive, Lebanon, OH, 45036, USA",https://www.datacentermap.com/usa/ohio/lebanon/cyrusone-cincinnati-lebanon/,39.3899143,-84.2151782
Dayton,https://www.datacentermap.com/usa/ohio/dayton/,Iron Mountain Data Centers OHS-1,Iron Mountain Data Centers,"3366 S. Tech Blvd., Miamisburg, OH, 45342, USA",https://www.datacentermap.com/usa/ohio/dayton/iron-mountain-ohs-1/,39.5915722,-84.2330431
Dayton,https://www.datacentermap.com/usa/ohio/dayton/,Encore Technologies MSB1,Encore Technologies,"9333 N Springboro Pike, Miamisburg, OH, 45342, USA",https://www.datacentermap.com/usa/ohio/dayton/encore-technologies-msb1/,39.6164876,-84.2290695
Dayton,https://www.datacentermap.com/usa/ohio/dayton/,Lumen Dayton 2,Lumen,"130 W 2nd St, Dayton, OH, 45402, USA",https://www.datacentermap.com/usa/ohio/dayton/lumen-dayton-2/,39.7603556,-84.1951402
Dayton,https://www.datacentermap.com/usa/ohio/dayton/,Lumen Dayton 3,Lumen,"1 S Main St, Dayton, OH, 45402, USA",https://www.datacentermap.com/usa/ohio/dayton/twtc-dayton/,39.759445,-84.191785
Dayton,https://www.datacentermap.com/usa/ohio/dayton/,Lumen Dayton 1,Lumen,"600 S Broadway Street, Dayton, OH, 45408, USA",https://www.datacentermap.com/usa/ohio/dayton/level3-dayton1/,39.745782,-84.214073
Akron Canton,https://www.datacentermap.com/usa/ohio/akron-canton/,TKG Data Center,The Karcher Group,"5590 Lauby Rd, North Canton, OH, 44720, USA",https://www.datacentermap.com/usa/ohio/akron-canton/the-karcher-group/,40.9102131,-81.431563
Akron Canton,https://www.datacentermap.com/usa/ohio/akron-canton/,CBTS Mason Data Center,CBTS,"784 Forrest Hill St., Mason, OH, 45040, USA",https://www.datacentermap.com/usa/ohio/akron-canton/cbts-mason-data-center/,41.0728614,-81.5025879
Hannibal,https://www.datacentermap.com/usa/ohio/hannibal/,DP Facilities - Hannibal Gap Data Center,DP Facilities,"43840 State Route 7, Hannibal, OH, 43931, USA",https://www.datacentermap.com/usa/ohio/hannibal/hannibal-gap-data-center/,39.70262409471337,-80.84958911822636
Lima OH,https://www.datacentermap.com/usa/ohio/lima-oh/,Microtronix Datacenter,"Microtronix ESolutions, LLC","349 Wayne St, Ohio, OH, 45876, USA",https://www.datacentermap.com/usa/ohio/lima-oh/microtronix-datacenter/,40.9295779241061,-84.34159699387413
